<osm generator="uvmogr2osm" upload="false" version="0.6">
<node id="-2" lat="23.55203" lon="87.28373" visible="true"><tag k="begin" v="" /><tag k="altitudeMode" v="" /><tag k="end" v="" /><tag k="Name" v="xxx" /><tag k="timestamp" v="" /><tag k="tessellate" v="-1" /><tag k="extrude" v="-1" /><tag k="visibility" v="-1" /><tag k="drawOrder" v="" /><tag k="icon" v="" /><tag k="description" v="" /></node>
<node id="-3" lat="23.55182" lon="87.28441" visible="true"><tag k="begin" v="" /><tag k="altitudeMode" v="" /><tag k="end" v="" /><tag k="Name" v="xxx" /><tag k="timestamp" v="" /><tag k="tessellate" v="-1" /><tag k="extrude" v="-1" /><tag k="visibility" v="-1" /><tag k="drawOrder" v="" /><tag k="icon" v="" /><tag k="description" v="" /></node>
<node id="-4" lat="23.55217" lon="87.28456" visible="true"><tag k="begin" v="" /><tag k="altitudeMode" v="" /><tag k="end" v="" /><tag k="Name" v="xxx" /><tag k="timestamp" v="" /><tag k="tessellate" v="-1" /><tag k="extrude" v="-1" /><tag k="visibility" v="-1" /><tag k="drawOrder" v="" /><tag k="icon" v="" /><tag k="description" v="" /></node>
<node id="-5" lat="23.5521" lon="87.28476" visible="true"><tag k="begin" v="" /><tag k="altitudeMode" v="" /><tag k="end" v="" /><tag k="Name" v="xxx" /><tag k="timestamp" v="" /><tag k="tessellate" v="-1" /><tag k="extrude" v="-1" /><tag k="visibility" v="-1" /><tag k="drawOrder" v="" /><tag k="icon" v="" /><tag k="description" v="" /></node>
<node id="-9" lat="23.55227" lon="87.28461" visible="true" />
<node id="-10" lat="23.55234" lon="87.28465" visible="true" />
<node id="-11" lat="23.55251" lon="87.28476" visible="true" />
<node id="-12" lat="23.55256" lon="87.28479" visible="true"><tag k="begin" v="" /><tag k="altitudeMode" v="" /><tag k="end" v="" /><tag k="Name" v="xxx" /><tag k="timestamp" v="" /><tag k="tessellate" v="-1" /><tag k="extrude" v="-1" /><tag k="visibility" v="-1" /><tag k="drawOrder" v="" /><tag k="icon" v="" /><tag k="description" v="" /></node>
<node id="-13" lat="23.55259" lon="87.28476" visible="true" />
<node id="-14" lat="23.55269" lon="87.28467" visible="true" />
<node id="-15" lat="23.55281" lon="87.28457" visible="true" />
<node id="-16" lat="23.55292" lon="87.28445" visible="true" />
<node id="-17" lat="23.553" lon="87.28433" visible="true"><tag k="begin" v="" /><tag k="altitudeMode" v="" /><tag k="end" v="" /><tag k="Name" v="yyy" /><tag k="timestamp" v="" /><tag k="tessellate" v="-1" /><tag k="extrude" v="-1" /><tag k="visibility" v="-1" /><tag k="drawOrder" v="" /><tag k="icon" v="" /><tag k="description" v="" /></node>
<node id="-18" lat="23.55302" lon="87.28433" visible="true" />
<node id="-19" lat="23.55307" lon="87.2843" visible="true" />
<node id="-20" lat="23.5531" lon="87.28428" visible="true"><tag k="begin" v="" /><tag k="altitudeMode" v="" /><tag k="end" v="" /><tag k="Name" v="yyy" /><tag k="timestamp" v="" /><tag k="tessellate" v="-1" /><tag k="extrude" v="-1" /><tag k="visibility" v="-1" /><tag k="drawOrder" v="" /><tag k="icon" v="" /><tag k="description" v="" /></node>
<node id="-21" lat="23.55319" lon="87.28441" visible="true" />
<node id="-22" lat="23.55338" lon="87.28472" visible="true"><tag k="begin" v="" /><tag k="altitudeMode" v="" /><tag k="end" v="" /><tag k="Name" v="xxx" /><tag k="timestamp" v="" /><tag k="tessellate" v="-1" /><tag k="extrude" v="-1" /><tag k="visibility" v="-1" /><tag k="drawOrder" v="" /><tag k="icon" v="" /><tag k="description" v="" /></node>
<node id="-23" lat="23.55316" lon="87.2848" visible="true" />
<node id="-24" lat="23.553" lon="87.28489" visible="true" />
<node id="-25" lat="23.55259" lon="87.28509" visible="true" />
<node id="-26" lat="23.55236" lon="87.28522" visible="true" />
<node id="-27" lat="23.55225" lon="87.28533" visible="true" />
<node id="-28" lat="23.55204" lon="87.28557" visible="true" />
<node id="-29" lat="23.55195" lon="87.28568" visible="true"><tag k="begin" v="" /><tag k="altitudeMode" v="" /><tag k="end" v="" /><tag k="Name" v="yyy" /><tag k="timestamp" v="" /><tag k="tessellate" v="-1" /><tag k="extrude" v="-1" /><tag k="visibility" v="-1" /><tag k="drawOrder" v="" /><tag k="icon" v="" /><tag k="description" v="" /></node>
<node id="-33" lat="23.55251" lon="87.28482" visible="true" />
<node id="-34" lat="23.5523" lon="87.28502" visible="true" />
<node id="-35" lat="23.55179" lon="87.28557" visible="true" />
<node id="-36" lat="23.55137" lon="87.28608" visible="true" />
<node id="-37" lat="23.55161" lon="87.28627" visible="true"><tag k="begin" v="" /><tag k="altitudeMode" v="" /><tag k="end" v="" /><tag k="Name" v="xxx" /><tag k="timestamp" v="" /><tag k="tessellate" v="-1" /><tag k="extrude" v="-1" /><tag k="visibility" v="-1" /><tag k="drawOrder" v="" /><tag k="icon" v="" /><tag k="description" v="" /></node>
<node id="-38" lat="23.55178" lon="87.28615" visible="true" />
<node id="-39" lat="23.55202" lon="87.28594" visible="true" />
<node id="-40" lat="23.5519" lon="87.28578" visible="true" />
<node id="-41" lat="23.5519" lon="87.28575" visible="true" />
<node id="-45" lat="23.55177" lon="87.28457" visible="true" />
<node id="-46" lat="23.5516" lon="87.28514" visible="true" />
<node id="-47" lat="23.55159" lon="87.28522" visible="true" />
<node id="-48" lat="23.55151" lon="87.28547" visible="true" />
<node id="-49" lat="23.55162" lon="87.28553" visible="true" />
<node id="-50" lat="23.5516" lon="87.28558" visible="true" />
<node id="-51" lat="23.55124" lon="87.28598" visible="true" />
<node id="-52" lat="23.55151" lon="87.28619" visible="true"><tag k="begin" v="" /><tag k="altitudeMode" v="" /><tag k="end" v="" /><tag k="Name" v="yyy" /><tag k="timestamp" v="" /><tag k="tessellate" v="-1" /><tag k="extrude" v="-1" /><tag k="visibility" v="-1" /><tag k="drawOrder" v="" /><tag k="icon" v="" /><tag k="description" v="" /></node>
<node id="-56" lat="23.55157" lon="87.28634" visible="true" />
<node id="-57" lat="23.55201" lon="87.28669" visible="true"><tag k="begin" v="" /><tag k="altitudeMode" v="" /><tag k="end" v="" /><tag k="Name" v="xxx" /><tag k="timestamp" v="" /><tag k="tessellate" v="-1" /><tag k="extrude" v="-1" /><tag k="visibility" v="-1" /><tag k="drawOrder" v="" /><tag k="icon" v="" /><tag k="description" v="" /></node>
<node id="-61" lat="23.55228" lon="87.28693" visible="true" />
<node id="-62" lat="23.55247" lon="87.28707" visible="true" />
<node id="-63" lat="23.55253" lon="87.2871" visible="true" />
<node id="-64" lat="23.55234" lon="87.2872" visible="true" />
<node id="-65" lat="23.55245" lon="87.28789" visible="true"><tag k="begin" v="" /><tag k="altitudeMode" v="" /><tag k="end" v="" /><tag k="Name" v="xxx" /><tag k="timestamp" v="" /><tag k="tessellate" v="-1" /><tag k="extrude" v="-1" /><tag k="visibility" v="-1" /><tag k="drawOrder" v="" /><tag k="icon" v="" /><tag k="description" v="" /></node>
<node id="-66" lat="23.55205" lon="87.288" visible="true"><tag k="begin" v="" /><tag k="altitudeMode" v="" /><tag k="end" v="" /><tag k="Name" v="yyy" /><tag k="timestamp" v="" /><tag k="tessellate" v="-1" /><tag k="extrude" v="-1" /><tag k="visibility" v="-1" /><tag k="drawOrder" v="" /><tag k="icon" v="" /><tag k="description" v="" /></node>
<node id="-70" lat="23.55248" lon="87.28821" visible="true"><tag k="begin" v="" /><tag k="altitudeMode" v="" /><tag k="end" v="" /><tag k="Name" v="xxx" /><tag k="timestamp" v="" /><tag k="tessellate" v="-1" /><tag k="extrude" v="-1" /><tag k="visibility" v="-1" /><tag k="drawOrder" v="" /><tag k="icon" v="" /><tag k="description" v="" /></node>
<node id="-71" lat="23.55192" lon="87.28834" visible="true"><tag k="begin" v="" /><tag k="altitudeMode" v="" /><tag k="end" v="" /><tag k="Name" v="yyy" /><tag k="timestamp" v="" /><tag k="tessellate" v="-1" /><tag k="extrude" v="-1" /><tag k="visibility" v="-1" /><tag k="drawOrder" v="" /><tag k="icon" v="" /><tag k="description" v="" /></node>
<node id="-75" lat="23.55248" lon="87.28833" visible="true" />
<node id="-76" lat="23.55247" lon="87.28846" visible="true" />
<node id="-77" lat="23.55227" lon="87.2892" visible="true" />
<node id="-78" lat="23.55213" lon="87.28975" visible="true"><tag k="begin" v="" /><tag k="altitudeMode" v="" /><tag k="end" v="" /><tag k="Name" v="xxx" /><tag k="timestamp" v="" /><tag k="tessellate" v="-1" /><tag k="extrude" v="-1" /><tag k="visibility" v="-1" /><tag k="drawOrder" v="" /><tag k="icon" v="" /><tag k="description" v="" /></node>
<node id="-82" lat="23.55191" lon="87.29069" visible="true"><tag k="begin" v="" /><tag k="altitudeMode" v="" /><tag k="end" v="" /><tag k="Name" v="xxx" /><tag k="timestamp" v="" /><tag k="tessellate" v="-1" /><tag k="extrude" v="-1" /><tag k="visibility" v="-1" /><tag k="drawOrder" v="" /><tag k="icon" v="" /><tag k="description" v="" /></node>
<node id="-86" lat="23.5517" lon="87.29164" visible="true" />
<node id="-87" lat="23.55199" lon="87.29163" visible="true"><tag k="begin" v="" /><tag k="altitudeMode" v="" /><tag k="end" v="" /><tag k="Name" v="yyy" /><tag k="timestamp" v="" /><tag k="tessellate" v="-1" /><tag k="extrude" v="-1" /><tag k="visibility" v="-1" /><tag k="drawOrder" v="" /><tag k="icon" v="" /><tag k="description" v="" /></node>
<node id="-91" lat="23.55314" lon="87.28352" visible="true"><tag k="begin" v="" /><tag k="altitudeMode" v="" /><tag k="end" v="" /><tag k="Name" v="yyy" /><tag k="timestamp" v="" /><tag k="tessellate" v="-1" /><tag k="extrude" v="-1" /><tag k="visibility" v="-1" /><tag k="drawOrder" v="" /><tag k="icon" v="" /><tag k="description" v="" /></node>
<node id="-92" lat="23.55339" lon="87.28376" visible="true"><tag k="begin" v="" /><tag k="altitudeMode" v="" /><tag k="end" v="" /><tag k="Name" v="xxx" /><tag k="timestamp" v="" /><tag k="tessellate" v="-1" /><tag k="extrude" v="-1" /><tag k="visibility" v="-1" /><tag k="drawOrder" v="" /><tag k="icon" v="" /><tag k="description" v="" /></node>
<node id="-96" lat="23.55365" lon="87.28405" visible="true" />
<node id="-97" lat="23.5539" lon="87.28432" visible="true" />
<node id="-98" lat="23.55375" lon="87.28441" visible="true" />
<node id="-99" lat="23.55365" lon="87.28449" visible="true" />
<node id="-100" lat="23.55358" lon="87.28458" visible="true" />
<node id="-101" lat="23.55347" lon="87.28466" visible="true" />
<node id="-102" lat="23.55325" lon="87.28476" visible="true"><tag k="begin" v="" /><tag k="altitudeMode" v="" /><tag k="end" v="" /><tag k="Name" v="yyy" /><tag k="timestamp" v="" /><tag k="tessellate" v="-1" /><tag k="extrude" v="-1" /><tag k="visibility" v="-1" /><tag k="drawOrder" v="" /><tag k="icon" v="" /><tag k="description" v="" /></node>
<node id="-106" lat="23.55364" lon="87.28527" visible="true" />
<node id="-107" lat="23.55369" lon="87.28545" visible="true"><tag k="begin" v="" /><tag k="altitudeMode" v="" /><tag k="end" v="" /><tag k="Name" v="xxx" /><tag k="timestamp" v="" /><tag k="tessellate" v="-1" /><tag k="extrude" v="-1" /><tag k="visibility" v="-1" /><tag k="drawOrder" v="" /><tag k="icon" v="" /><tag k="description" v="" /></node>
<node id="-108" lat="23.55354" lon="87.28549" visible="true" />
<node id="-109" lat="23.55329" lon="87.28556" visible="true" />
<node id="-110" lat="23.55297" lon="87.28565" visible="true"><tag k="begin" v="" /><tag k="altitudeMode" v="" /><tag k="end" v="" /><tag k="Name" v="xxx" /><tag k="timestamp" v="" /><tag k="tessellate" v="-1" /><tag k="extrude" v="-1" /><tag k="visibility" v="-1" /><tag k="drawOrder" v="" /><tag k="icon" v="" /><tag k="description" v="" /></node>
<node id="-114" lat="23.55379" lon="87.28568" visible="true"><tag k="begin" v="" /><tag k="altitudeMode" v="" /><tag k="end" v="" /><tag k="Name" v="xxx" /><tag k="timestamp" v="" /><tag k="tessellate" v="-1" /><tag k="extrude" v="-1" /><tag k="visibility" v="-1" /><tag k="drawOrder" v="" /><tag k="icon" v="" /><tag k="description" v="" /></node>
<node id="-115" lat="23.55386" lon="87.28592" visible="true" />
<node id="-116" lat="23.55394" lon="87.2862" visible="true" />
<node id="-117" lat="23.55398" lon="87.28636" visible="true" />
<node id="-118" lat="23.55391" lon="87.28641" visible="true" />
<node id="-119" lat="23.55379" lon="87.28648" visible="true"><tag k="begin" v="" /><tag k="altitudeMode" v="" /><tag k="end" v="" /><tag k="Name" v="yyy" /><tag k="timestamp" v="" /><tag k="tessellate" v="-1" /><tag k="extrude" v="-1" /><tag k="visibility" v="-1" /><tag k="drawOrder" v="" /><tag k="icon" v="" /><tag k="description" v="" /></node>
<node id="-120" lat="23.55313" lon="87.28679" visible="true" />
<node id="-121" lat="23.55305" lon="87.28684" visible="true"><tag k="begin" v="" /><tag k="altitudeMode" v="" /><tag k="end" v="" /><tag k="Name" v="yyy" /><tag k="timestamp" v="" /><tag k="tessellate" v="-1" /><tag k="extrude" v="-1" /><tag k="visibility" v="-1" /><tag k="drawOrder" v="" /><tag k="icon" v="" /><tag k="description" v="" /></node>
<node id="-125" lat="23.55266" lon="87.28577" visible="true" />
<node id="-126" lat="23.55238" lon="87.28593" visible="true" />
<node id="-127" lat="23.5519" lon="87.28647" visible="true" />
<node id="-128" lat="23.55188" lon="87.2865" visible="true" />
<node id="-129" lat="23.55204" lon="87.28667" visible="true" />
<node id="-130" lat="23.5522" lon="87.2868" visible="true" />
<node id="-131" lat="23.55259" lon="87.28707" visible="true" />
<node id="-135" lat="23.553" lon="87.28776" visible="true"><tag k="begin" v="" /><tag k="altitudeMode" v="" /><tag k="end" v="" /><tag k="Name" v="yyy" /><tag k="timestamp" v="" /><tag k="tessellate" v="-1" /><tag k="extrude" v="-1" /><tag k="visibility" v="-1" /><tag k="drawOrder" v="" /><tag k="icon" v="" /><tag k="description" v="" /></node>
<node id="-139" lat="23.55242" lon="87.28864" visible="true"><tag k="begin" v="" /><tag k="altitudeMode" v="" /><tag k="end" v="" /><tag k="Name" v="xxx" /><tag k="timestamp" v="" /><tag k="tessellate" v="-1" /><tag k="extrude" v="-1" /><tag k="visibility" v="-1" /><tag k="drawOrder" v="" /><tag k="icon" v="" /><tag k="description" v="" /></node>
<node id="-140" lat="23.55295" lon="87.28852" visible="true"><tag k="begin" v="" /><tag k="altitudeMode" v="" /><tag k="end" v="" /><tag k="Name" v="yyy" /><tag k="timestamp" v="" /><tag k="tessellate" v="-1" /><tag k="extrude" v="-1" /><tag k="visibility" v="-1" /><tag k="drawOrder" v="" /><tag k="icon" v="" /><tag k="description" v="" /></node>
<node id="-144" lat="23.55215" lon="87.28966" visible="true"><tag k="begin" v="" /><tag k="altitudeMode" v="" /><tag k="end" v="" /><tag k="Name" v="xxx" /><tag k="timestamp" v="" /><tag k="tessellate" v="-1" /><tag k="extrude" v="-1" /><tag k="visibility" v="-1" /><tag k="drawOrder" v="" /><tag k="icon" v="" /><tag k="description" v="" /></node>
<node id="-145" lat="23.55295" lon="87.28948" visible="true" />
<node id="-146" lat="23.55298" lon="87.28949" visible="true" />
<node id="-147" lat="23.553" lon="87.28949" visible="true" />
<node id="-148" lat="23.55304" lon="87.28952" visible="true" />
<node id="-149" lat="23.55308" lon="87.28969" visible="true"><tag k="begin" v="" /><tag k="altitudeMode" v="" /><tag k="end" v="" /><tag k="Name" v="xxx" /><tag k="timestamp" v="" /><tag k="tessellate" v="-1" /><tag k="extrude" v="-1" /><tag k="visibility" v="-1" /><tag k="drawOrder" v="" /><tag k="icon" v="" /><tag k="description" v="" /></node>
<node id="-153" lat="23.55334" lon="87.29097" visible="true"><tag k="begin" v="" /><tag k="altitudeMode" v="" /><tag k="end" v="" /><tag k="Name" v="xxx" /><tag k="timestamp" v="" /><tag k="tessellate" v="-1" /><tag k="extrude" v="-1" /><tag k="visibility" v="-1" /><tag k="drawOrder" v="" /><tag k="icon" v="" /><tag k="description" v="" /></node>
<node id="-154" lat="23.55298" lon="87.29096" visible="true"><tag k="begin" v="" /><tag k="altitudeMode" v="" /><tag k="end" v="" /><tag k="Name" v="yyy" /><tag k="timestamp" v="" /><tag k="tessellate" v="-1" /><tag k="extrude" v="-1" /><tag k="visibility" v="-1" /><tag k="drawOrder" v="" /><tag k="icon" v="" /><tag k="description" v="" /></node>
<node id="-158" lat="23.55385" lon="87.28385" visible="true"><tag k="begin" v="" /><tag k="altitudeMode" v="" /><tag k="end" v="" /><tag k="Name" v="yyy" /><tag k="timestamp" v="" /><tag k="tessellate" v="-1" /><tag k="extrude" v="-1" /><tag k="visibility" v="-1" /><tag k="drawOrder" v="" /><tag k="icon" v="" /><tag k="description" v="" /></node>
<node id="-159" lat="23.55417" lon="87.28424" visible="true"><tag k="begin" v="" /><tag k="altitudeMode" v="" /><tag k="end" v="" /><tag k="Name" v="xxx" /><tag k="timestamp" v="" /><tag k="tessellate" v="-1" /><tag k="extrude" v="-1" /><tag k="visibility" v="-1" /><tag k="drawOrder" v="" /><tag k="icon" v="" /><tag k="description" v="" /></node>
<node id="-160" lat="23.55424" lon="87.28436" visible="true" />
<node id="-161" lat="23.55424" lon="87.28439" visible="true" />
<node id="-162" lat="23.55394" lon="87.28465" visible="true"><tag k="begin" v="" /><tag k="altitudeMode" v="" /><tag k="end" v="" /><tag k="Name" v="yyy" /><tag k="timestamp" v="" /><tag k="tessellate" v="-1" /><tag k="extrude" v="-1" /><tag k="visibility" v="-1" /><tag k="drawOrder" v="" /><tag k="icon" v="" /><tag k="description" v="" /></node>
<node id="-166" lat="23.55392" lon="87.28559" visible="true"><tag k="begin" v="" /><tag k="altitudeMode" v="" /><tag k="end" v="" /><tag k="Name" v="xxx" /><tag k="timestamp" v="" /><tag k="tessellate" v="-1" /><tag k="extrude" v="-1" /><tag k="visibility" v="-1" /><tag k="drawOrder" v="" /><tag k="icon" v="" /><tag k="description" v="" /></node>
<node id="-170" lat="23.55296" lon="87.28777" visible="true"><tag k="begin" v="" /><tag k="altitudeMode" v="" /><tag k="end" v="" /><tag k="Name" v="xxx" /><tag k="timestamp" v="" /><tag k="tessellate" v="-1" /><tag k="extrude" v="-1" /><tag k="visibility" v="-1" /><tag k="drawOrder" v="" /><tag k="icon" v="" /><tag k="description" v="" /></node>
<node id="-171" lat="23.55306" lon="87.28773" visible="true" />
<node id="-172" lat="23.55331" lon="87.28761" visible="true" />
<node id="-173" lat="23.55362" lon="87.28752" visible="true" />
<node id="-174" lat="23.55346" lon="87.28686" visible="true" />
<node id="-175" lat="23.55349" lon="87.28682" visible="true" />
<node id="-176" lat="23.55399" lon="87.28672" visible="true"><tag k="begin" v="" /><tag k="altitudeMode" v="" /><tag k="end" v="" /><tag k="Name" v="yyy" /><tag k="timestamp" v="" /><tag k="tessellate" v="-1" /><tag k="extrude" v="-1" /><tag k="visibility" v="-1" /><tag k="drawOrder" v="" /><tag k="icon" v="" /><tag k="description" v="" /></node>
<node id="-180" lat="23.5544" lon="87.28528" visible="true" />
<node id="-181" lat="23.55442" lon="87.28523" visible="true" />
<node id="-182" lat="23.55454" lon="87.28514" visible="true" />
<node id="-183" lat="23.55455" lon="87.28509" visible="true" />
<node id="-184" lat="23.55456" lon="87.28501" visible="true" />
<node id="-185" lat="23.55477" lon="87.28494" visible="true" />
<node id="-186" lat="23.55486" lon="87.28491" visible="true"><tag k="begin" v="" /><tag k="altitudeMode" v="" /><tag k="end" v="" /><tag k="Name" v="yyy" /><tag k="timestamp" v="" /><tag k="tessellate" v="-1" /><tag k="extrude" v="-1" /><tag k="visibility" v="-1" /><tag k="drawOrder" v="" /><tag k="icon" v="" /><tag k="description" v="" /></node>
<node id="-187" lat="23.55489" lon="87.28497" visible="true" />
<node id="-188" lat="23.55494" lon="87.28506" visible="true" />
<node id="-189" lat="23.55503" lon="87.28516" visible="true" />
<node id="-190" lat="23.55506" lon="87.28525" visible="true" />
<node id="-191" lat="23.55514" lon="87.28558" visible="true" />
<node id="-192" lat="23.55517" lon="87.28567" visible="true"><tag k="begin" v="" /><tag k="altitudeMode" v="" /><tag k="end" v="" /><tag k="Name" v="xxx" /><tag k="timestamp" v="" /><tag k="tessellate" v="-1" /><tag k="extrude" v="-1" /><tag k="visibility" v="-1" /><tag k="drawOrder" v="" /><tag k="icon" v="" /><tag k="description" v="" /></node>
<node id="-193" lat="23.55522" lon="87.28564" visible="true" />
<node id="-194" lat="23.5556" lon="87.28546" visible="true"><tag k="begin" v="" /><tag k="altitudeMode" v="" /><tag k="end" v="" /><tag k="Name" v="yyy" /><tag k="timestamp" v="" /><tag k="tessellate" v="-1" /><tag k="extrude" v="-1" /><tag k="visibility" v="-1" /><tag k="drawOrder" v="" /><tag k="icon" v="" /><tag k="description" v="" /></node>
<node id="-195" lat="23.55609" lon="87.2865" visible="true"><tag k="begin" v="" /><tag k="altitudeMode" v="" /><tag k="end" v="" /><tag k="Name" v="xxx" /><tag k="timestamp" v="" /><tag k="tessellate" v="-1" /><tag k="extrude" v="-1" /><tag k="visibility" v="-1" /><tag k="drawOrder" v="" /><tag k="icon" v="" /><tag k="description" v="" /></node>
<node id="-196" lat="23.55584" lon="87.28664" visible="true" />
<node id="-197" lat="23.55568" lon="87.28676" visible="true" />
<node id="-198" lat="23.55551" lon="87.2869" visible="true" />
<node id="-199" lat="23.55542" lon="87.28706" visible="true" />
<node id="-200" lat="23.55535" lon="87.28725" visible="true"><tag k="begin" v="" /><tag k="altitudeMode" v="" /><tag k="end" v="" /><tag k="Name" v="xxx" /><tag k="timestamp" v="" /><tag k="tessellate" v="-1" /><tag k="extrude" v="-1" /><tag k="visibility" v="-1" /><tag k="drawOrder" v="" /><tag k="icon" v="" /><tag k="description" v="" /></node>
<node id="-201" lat="23.55506" lon="87.2873" visible="true" />
<node id="-202" lat="23.55425" lon="87.28746" visible="true" />
<node id="-203" lat="23.55417" lon="87.2875" visible="true" />
<node id="-204" lat="23.55402" lon="87.28759" visible="true" />
<node id="-205" lat="23.55365" lon="87.28767" visible="true"><tag k="begin" v="" /><tag k="altitudeMode" v="" /><tag k="end" v="" /><tag k="Name" v="xxx" /><tag k="timestamp" v="" /><tag k="tessellate" v="-1" /><tag k="extrude" v="-1" /><tag k="visibility" v="-1" /><tag k="drawOrder" v="" /><tag k="icon" v="" /><tag k="description" v="" /></node>
<node id="-206" lat="23.55346" lon="87.28685" visible="true"><tag k="begin" v="" /><tag k="altitudeMode" v="" /><tag k="end" v="" /><tag k="Name" v="yyy" /><tag k="timestamp" v="" /><tag k="tessellate" v="-1" /><tag k="extrude" v="-1" /><tag k="visibility" v="-1" /><tag k="drawOrder" v="" /><tag k="icon" v="" /><tag k="description" v="" /></node>
<node id="-210" lat="23.55382" lon="87.28834" visible="true" />
<node id="-211" lat="23.5539" lon="87.28835" visible="true" />
<node id="-212" lat="23.55408" lon="87.28847" visible="true" />
<node id="-213" lat="23.55416" lon="87.28855" visible="true" />
<node id="-214" lat="23.55417" lon="87.28862" visible="true" />
<node id="-215" lat="23.55418" lon="87.28868" visible="true"><tag k="begin" v="" /><tag k="altitudeMode" v="" /><tag k="end" v="" /><tag k="Name" v="xxx" /><tag k="timestamp" v="" /><tag k="tessellate" v="-1" /><tag k="extrude" v="-1" /><tag k="visibility" v="-1" /><tag k="drawOrder" v="" /><tag k="icon" v="" /><tag k="description" v="" /></node>
<node id="-219" lat="23.55433" lon="87.28957" visible="true" />
<node id="-220" lat="23.55433" lon="87.28966" visible="true" />
<node id="-221" lat="23.55431" lon="87.28969" visible="true" />
<node id="-222" lat="23.55416" lon="87.28973" visible="true" />
<node id="-223" lat="23.55414" lon="87.28976" visible="true"><tag k="begin" v="" /><tag k="altitudeMode" v="" /><tag k="end" v="" /><tag k="Name" v="xxx" /><tag k="timestamp" v="" /><tag k="tessellate" v="-1" /><tag k="extrude" v="-1" /><tag k="visibility" v="-1" /><tag k="drawOrder" v="" /><tag k="icon" v="" /><tag k="description" v="" /></node>
<node id="-227" lat="23.55419" lon="87.29012" visible="true" />
<node id="-228" lat="23.55418" lon="87.29013" visible="true" />
<node id="-229" lat="23.55322" lon="87.29035" visible="true"><tag k="begin" v="" /><tag k="altitudeMode" v="" /><tag k="end" v="" /><tag k="Name" v="yyy" /><tag k="timestamp" v="" /><tag k="tessellate" v="-1" /><tag k="extrude" v="-1" /><tag k="visibility" v="-1" /><tag k="drawOrder" v="" /><tag k="icon" v="" /><tag k="description" v="" /></node>
<node id="-233" lat="23.55398" lon="87.291" visible="true"><tag k="begin" v="" /><tag k="altitudeMode" v="" /><tag k="end" v="" /><tag k="Name" v="xxx" /><tag k="timestamp" v="" /><tag k="tessellate" v="-1" /><tag k="extrude" v="-1" /><tag k="visibility" v="-1" /><tag k="drawOrder" v="" /><tag k="icon" v="" /><tag k="description" v="" /></node>
<node id="-237" lat="23.55419" lon="87.29098" visible="true" />
<node id="-238" lat="23.55455" lon="87.29094" visible="true"><tag k="begin" v="" /><tag k="altitudeMode" v="" /><tag k="end" v="" /><tag k="Name" v="xxx" /><tag k="timestamp" v="" /><tag k="tessellate" v="-1" /><tag k="extrude" v="-1" /><tag k="visibility" v="-1" /><tag k="drawOrder" v="" /><tag k="icon" v="" /><tag k="description" v="" /></node>
<node id="-239" lat="23.55456" lon="87.29102" visible="true" />
<node id="-240" lat="23.55451" lon="87.29131" visible="true" />
<node id="-241" lat="23.55438" lon="87.29161" visible="true"><tag k="begin" v="" /><tag k="altitudeMode" v="" /><tag k="end" v="" /><tag k="Name" v="yyy" /><tag k="timestamp" v="" /><tag k="tessellate" v="-1" /><tag k="extrude" v="-1" /><tag k="visibility" v="-1" /><tag k="drawOrder" v="" /><tag k="icon" v="" /><tag k="description" v="" /></node>
<node id="-245" lat="23.55494" lon="87.28379" visible="true"><tag k="begin" v="" /><tag k="altitudeMode" v="" /><tag k="end" v="" /><tag k="Name" v="xxx" /><tag k="timestamp" v="" /><tag k="tessellate" v="-1" /><tag k="extrude" v="-1" /><tag k="visibility" v="-1" /><tag k="drawOrder" v="" /><tag k="icon" v="" /><tag k="description" v="" /></node>
<node id="-246" lat="23.5551" lon="87.28394" visible="true" />
<node id="-247" lat="23.55513" lon="87.28399" visible="true" />
<node id="-248" lat="23.55514" lon="87.28403" visible="true"><tag k="begin" v="" /><tag k="altitudeMode" v="" /><tag k="end" v="" /><tag k="Name" v="xxx" /><tag k="timestamp" v="" /><tag k="tessellate" v="-1" /><tag k="extrude" v="-1" /><tag k="visibility" v="-1" /><tag k="drawOrder" v="" /><tag k="icon" v="" /><tag k="description" v="" /></node>
<node id="-249" lat="23.55512" lon="87.28404" visible="true" />
<node id="-250" lat="23.55503" lon="87.28407" visible="true" />
<node id="-251" lat="23.5549" lon="87.28411" visible="true"><tag k="begin" v="" /><tag k="altitudeMode" v="" /><tag k="end" v="" /><tag k="Name" v="yyy" /><tag k="timestamp" v="" /><tag k="tessellate" v="-1" /><tag k="extrude" v="-1" /><tag k="visibility" v="-1" /><tag k="drawOrder" v="" /><tag k="icon" v="" /><tag k="description" v="" /></node>
<node id="-252" lat="23.55493" lon="87.28429" visible="true" />
<node id="-253" lat="23.55504" lon="87.2845" visible="true" />
<node id="-254" lat="23.55511" lon="87.28462" visible="true" />
<node id="-255" lat="23.55519" lon="87.28475" visible="true"><tag k="begin" v="" /><tag k="altitudeMode" v="" /><tag k="end" v="" /><tag k="Name" v="xxx" /><tag k="timestamp" v="" /><tag k="tessellate" v="-1" /><tag k="extrude" v="-1" /><tag k="visibility" v="-1" /><tag k="drawOrder" v="" /><tag k="icon" v="" /><tag k="description" v="" /></node>
<node id="-256" lat="23.55515" lon="87.28478" visible="true" />
<node id="-257" lat="23.55509" lon="87.28481" visible="true" />
<node id="-258" lat="23.55504" lon="87.28484" visible="true"><tag k="begin" v="" /><tag k="altitudeMode" v="" /><tag k="end" v="" /><tag k="Name" v="xxx" /><tag k="timestamp" v="" /><tag k="tessellate" v="-1" /><tag k="extrude" v="-1" /><tag k="visibility" v="-1" /><tag k="drawOrder" v="" /><tag k="icon" v="" /><tag k="description" v="" /></node>
<node id="-262" lat="23.55491" lon="87.28489" visible="true" />
<node id="-266" lat="23.55501" lon="87.28576" visible="true"><tag k="begin" v="" /><tag k="altitudeMode" v="" /><tag k="end" v="" /><tag k="Name" v="xxx" /><tag k="timestamp" v="" /><tag k="tessellate" v="-1" /><tag k="extrude" v="-1" /><tag k="visibility" v="-1" /><tag k="drawOrder" v="" /><tag k="icon" v="" /><tag k="description" v="" /></node>
<node id="-270" lat="23.55432" lon="87.28615" visible="true" />
<node id="-274" lat="23.55348" lon="87.28683" visible="true"><tag k="begin" v="" /><tag k="altitudeMode" v="" /><tag k="end" v="" /><tag k="Name" v="xxx" /><tag k="timestamp" v="" /><tag k="tessellate" v="-1" /><tag k="extrude" v="-1" /><tag k="visibility" v="-1" /><tag k="drawOrder" v="" /><tag k="icon" v="" /><tag k="description" v="" /></node>
<node id="-275" lat="23.55486" lon="87.28654" visible="true"><tag k="begin" v="" /><tag k="altitudeMode" v="" /><tag k="end" v="" /><tag k="Name" v="yyy" /><tag k="timestamp" v="" /><tag k="tessellate" v="-1" /><tag k="extrude" v="-1" /><tag k="visibility" v="-1" /><tag k="drawOrder" v="" /><tag k="icon" v="" /><tag k="description" v="" /></node>
<node id="-279" lat="23.55534" lon="87.28766" visible="true" />
<node id="-280" lat="23.55534" lon="87.2877" visible="true"><tag k="begin" v="" /><tag k="altitudeMode" v="" /><tag k="end" v="" /><tag k="Name" v="xxx" /><tag k="timestamp" v="" /><tag k="tessellate" v="-1" /><tag k="extrude" v="-1" /><tag k="visibility" v="-1" /><tag k="drawOrder" v="" /><tag k="icon" v="" /><tag k="description" v="" /></node>
<node id="-284" lat="23.55534" lon="87.28872" visible="true"><tag k="begin" v="" /><tag k="altitudeMode" v="" /><tag k="end" v="" /><tag k="Name" v="xxx" /><tag k="timestamp" v="" /><tag k="tessellate" v="-1" /><tag k="extrude" v="-1" /><tag k="visibility" v="-1" /><tag k="drawOrder" v="" /><tag k="icon" v="" /><tag k="description" v="" /></node>
<node id="-288" lat="23.55533" lon="87.28973" visible="true"><tag k="begin" v="" /><tag k="altitudeMode" v="" /><tag k="end" v="" /><tag k="Name" v="xxx" /><tag k="timestamp" v="" /><tag k="tessellate" v="-1" /><tag k="extrude" v="-1" /><tag k="visibility" v="-1" /><tag k="drawOrder" v="" /><tag k="icon" v="" /><tag k="description" v="" /></node>
<node id="-292" lat="23.55532" lon="87.29014" visible="true"><tag k="begin" v="" /><tag k="altitudeMode" v="" /><tag k="end" v="" /><tag k="Name" v="xxx" /><tag k="timestamp" v="" /><tag k="tessellate" v="-1" /><tag k="extrude" v="-1" /><tag k="visibility" v="-1" /><tag k="drawOrder" v="" /><tag k="icon" v="" /><tag k="description" v="" /></node>
<node id="-293" lat="23.55528" lon="87.29035" visible="true" />
<node id="-294" lat="23.5552" lon="87.29076" visible="true" />
<node id="-295" lat="23.55514" lon="87.29083" visible="true" />
<node id="-296" lat="23.55512" lon="87.29088" visible="true"><tag k="begin" v="" /><tag k="altitudeMode" v="" /><tag k="end" v="" /><tag k="Name" v="yyy" /><tag k="timestamp" v="" /><tag k="tessellate" v="-1" /><tag k="extrude" v="-1" /><tag k="visibility" v="-1" /><tag k="drawOrder" v="" /><tag k="icon" v="" /><tag k="description" v="" /></node>
<node id="-297" lat="23.55502" lon="87.2909" visible="true"><tag k="begin" v="" /><tag k="altitudeMode" v="" /><tag k="end" v="" /><tag k="Name" v="yyy" /><tag k="timestamp" v="" /><tag k="tessellate" v="-1" /><tag k="extrude" v="-1" /><tag k="visibility" v="-1" /><tag k="drawOrder" v="" /><tag k="icon" v="" /><tag k="description" v="" /></node>
<node id="-301" lat="23.55512" lon="87.29089" visible="true"><tag k="begin" v="" /><tag k="altitudeMode" v="" /><tag k="end" v="" /><tag k="Name" v="xxx" /><tag k="timestamp" v="" /><tag k="tessellate" v="-1" /><tag k="extrude" v="-1" /><tag k="visibility" v="-1" /><tag k="drawOrder" v="" /><tag k="icon" v="" /><tag k="description" v="" /></node>
<node id="-302" lat="23.55512" lon="87.29091" visible="true" />
<node id="-303" lat="23.55513" lon="87.29095" visible="true" />
<node id="-304" lat="23.55517" lon="87.29103" visible="true" />
<node id="-305" lat="23.55522" lon="87.29117" visible="true" />
<node id="-306" lat="23.55529" lon="87.29161" visible="true"><tag k="begin" v="" /><tag k="altitudeMode" v="" /><tag k="end" v="" /><tag k="Name" v="xxx" /><tag k="timestamp" v="" /><tag k="tessellate" v="-1" /><tag k="extrude" v="-1" /><tag k="visibility" v="-1" /><tag k="drawOrder" v="" /><tag k="icon" v="" /><tag k="description" v="" /></node>
<node id="-307" lat="23.5553" lon="87.2917" visible="true"><tag k="begin" v="" /><tag k="altitudeMode" v="" /><tag k="end" v="" /><tag k="Name" v="yyy" /><tag k="timestamp" v="" /><tag k="tessellate" v="-1" /><tag k="extrude" v="-1" /><tag k="visibility" v="-1" /><tag k="drawOrder" v="" /><tag k="icon" v="" /><tag k="description" v="" /></node>
<node id="-311" lat="23.55614" lon="87.28377" visible="true"><tag k="begin" v="" /><tag k="altitudeMode" v="" /><tag k="end" v="" /><tag k="Name" v="xxx" /><tag k="timestamp" v="" /><tag k="tessellate" v="-1" /><tag k="extrude" v="-1" /><tag k="visibility" v="-1" /><tag k="drawOrder" v="" /><tag k="icon" v="" /><tag k="description" v="" /></node>
<node id="-312" lat="23.55607" lon="87.28399" visible="true"><tag k="begin" v="" /><tag k="altitudeMode" v="" /><tag k="end" v="" /><tag k="Name" v="xxx" /><tag k="timestamp" v="" /><tag k="tessellate" v="-1" /><tag k="extrude" v="-1" /><tag k="visibility" v="-1" /><tag k="drawOrder" v="" /><tag k="icon" v="" /><tag k="description" v="" /></node>
<node id="-313" lat="23.55602" lon="87.28426" visible="true" />
<node id="-314" lat="23.55599" lon="87.28472" visible="true"><tag k="begin" v="" /><tag k="altitudeMode" v="" /><tag k="end" v="" /><tag k="Name" v="xxx" /><tag k="timestamp" v="" /><tag k="tessellate" v="-1" /><tag k="extrude" v="-1" /><tag k="visibility" v="-1" /><tag k="drawOrder" v="" /><tag k="icon" v="" /><tag k="description" v="" /></node>
<node id="-318" lat="23.55598" lon="87.28495" visible="true"><tag k="begin" v="" /><tag k="altitudeMode" v="" /><tag k="end" v="" /><tag k="Name" v="yyy" /><tag k="timestamp" v="" /><tag k="tessellate" v="-1" /><tag k="extrude" v="-1" /><tag k="visibility" v="-1" /><tag k="drawOrder" v="" /><tag k="icon" v="" /><tag k="description" v="" /></node>
<node id="-319" lat="23.55595" lon="87.28525" visible="true" />
<node id="-320" lat="23.55583" lon="87.28531" visible="true" />
<node id="-324" lat="23.55595" lon="87.28659" visible="true"><tag k="begin" v="" /><tag k="altitudeMode" v="" /><tag k="end" v="" /><tag k="Name" v="xxx" /><tag k="timestamp" v="" /><tag k="tessellate" v="-1" /><tag k="extrude" v="-1" /><tag k="visibility" v="-1" /><tag k="drawOrder" v="" /><tag k="icon" v="" /><tag k="description" v="" /></node>
<node id="-325" lat="23.55599" lon="87.28672" visible="true"><tag k="begin" v="" /><tag k="altitudeMode" v="" /><tag k="end" v="" /><tag k="Name" v="xxx" /><tag k="timestamp" v="" /><tag k="tessellate" v="-1" /><tag k="extrude" v="-1" /><tag k="visibility" v="-1" /><tag k="drawOrder" v="" /><tag k="icon" v="" /><tag k="description" v="" /></node>
<node id="-329" lat="23.55602" lon="87.28682" visible="true" />
<node id="-330" lat="23.55602" lon="87.28736" visible="true"><tag k="begin" v="" /><tag k="altitudeMode" v="" /><tag k="end" v="" /><tag k="Name" v="xxx" /><tag k="timestamp" v="" /><tag k="tessellate" v="-1" /><tag k="extrude" v="-1" /><tag k="visibility" v="-1" /><tag k="drawOrder" v="" /><tag k="icon" v="" /><tag k="description" v="" /></node>
<node id="-331" lat="23.55602" lon="87.28742" visible="true" />
<node id="-332" lat="23.55601" lon="87.28772" visible="true"><tag k="begin" v="" /><tag k="altitudeMode" v="" /><tag k="end" v="" /><tag k="Name" v="yyy" /><tag k="timestamp" v="" /><tag k="tessellate" v="-1" /><tag k="extrude" v="-1" /><tag k="visibility" v="-1" /><tag k="drawOrder" v="" /><tag k="icon" v="" /><tag k="description" v="" /></node>
<node id="-336" lat="23.55636" lon="87.28725" visible="true" />
<node id="-337" lat="23.55665" lon="87.2872" visible="true" />
<node id="-338" lat="23.55685" lon="87.28733" visible="true" />
<node id="-339" lat="23.55689" lon="87.28735" visible="true" />
<node id="-340" lat="23.55714" lon="87.2873" visible="true"><tag k="begin" v="" /><tag k="altitudeMode" v="" /><tag k="end" v="" /><tag k="Name" v="xxx" /><tag k="timestamp" v="" /><tag k="tessellate" v="-1" /><tag k="extrude" v="-1" /><tag k="visibility" v="-1" /><tag k="drawOrder" v="" /><tag k="icon" v="" /><tag k="description" v="" /></node>
<node id="-341" lat="23.55732" lon="87.28832" visible="true" />
<node id="-342" lat="23.55687" lon="87.28833" visible="true" />
<node id="-343" lat="23.55679" lon="87.28836" visible="true" />
<node id="-344" lat="23.55677" lon="87.2884" visible="true" />
<node id="-345" lat="23.55678" lon="87.28845" visible="true" />
<node id="-346" lat="23.55699" lon="87.28956" visible="true"><tag k="begin" v="" /><tag k="altitudeMode" v="" /><tag k="end" v="" /><tag k="Name" v="xxx" /><tag k="timestamp" v="" /><tag k="tessellate" v="-1" /><tag k="extrude" v="-1" /><tag k="visibility" v="-1" /><tag k="drawOrder" v="" /><tag k="icon" v="" /><tag k="description" v="" /></node>
<node id="-347" lat="23.55676" lon="87.28961" visible="true"><tag k="begin" v="" /><tag k="altitudeMode" v="" /><tag k="end" v="" /><tag k="Name" v="xxx" /><tag k="timestamp" v="" /><tag k="tessellate" v="-1" /><tag k="extrude" v="-1" /><tag k="visibility" v="-1" /><tag k="drawOrder" v="" /><tag k="icon" v="" /><tag k="description" v="" /></node>
<node id="-348" lat="23.55636" lon="87.28972" visible="true" />
<node id="-349" lat="23.55624" lon="87.28975" visible="true" />
<node id="-350" lat="23.55604" lon="87.28877" visible="true" />
<node id="-351" lat="23.55603" lon="87.28873" visible="true" />
<node id="-352" lat="23.55603" lon="87.28872" visible="true" />
<node id="-353" lat="23.55602" lon="87.28871" visible="true" />
<node id="-354" lat="23.55599" lon="87.28872" visible="true"><tag k="begin" v="" /><tag k="altitudeMode" v="" /><tag k="end" v="" /><tag k="Name" v="yyy" /><tag k="timestamp" v="" /><tag k="tessellate" v="-1" /><tag k="extrude" v="-1" /><tag k="visibility" v="-1" /><tag k="drawOrder" v="" /><tag k="icon" v="" /><tag k="description" v="" /></node>
<node id="-358" lat="23.55536" lon="87.28815" visible="true" />
<node id="-362" lat="23.55534" lon="87.29056" visible="true" />
<node id="-363" lat="23.55539" lon="87.29079" visible="true" />
<node id="-364" lat="23.55542" lon="87.29082" visible="true" />
<node id="-365" lat="23.55552" lon="87.29084" visible="true" />
<node id="-366" lat="23.55568" lon="87.29087" visible="true" />
<node id="-367" lat="23.55584" lon="87.29089" visible="true" />
<node id="-368" lat="23.55592" lon="87.29093" visible="true"><tag k="begin" v="" /><tag k="altitudeMode" v="" /><tag k="end" v="" /><tag k="Name" v="xxx" /><tag k="timestamp" v="" /><tag k="tessellate" v="-1" /><tag k="extrude" v="-1" /><tag k="visibility" v="-1" /><tag k="drawOrder" v="" /><tag k="icon" v="" /><tag k="description" v="" /></node>
<node id="-369" lat="23.55597" lon="87.29093" visible="true"><tag k="begin" v="" /><tag k="altitudeMode" v="" /><tag k="end" v="" /><tag k="Name" v="xxx" /><tag k="timestamp" v="" /><tag k="tessellate" v="-1" /><tag k="extrude" v="-1" /><tag k="visibility" v="-1" /><tag k="drawOrder" v="" /><tag k="icon" v="" /><tag k="description" v="" /></node>
<node id="-370" lat="23.556" lon="87.28979" visible="true" />
<node id="-374" lat="23.5558" lon="87.29096" visible="true" />
<node id="-375" lat="23.55558" lon="87.29096" visible="true" />
<node id="-376" lat="23.55549" lon="87.29099" visible="true" />
<node id="-377" lat="23.5554" lon="87.29102" visible="true" />
<node id="-378" lat="23.55537" lon="87.29105" visible="true" />
<node id="-379" lat="23.55532" lon="87.2913" visible="true" />
<node id="-380" lat="23.55532" lon="87.29152" visible="true" />
<node id="-384" lat="23.5553" lon="87.29181" visible="true" />
<node id="-385" lat="23.55531" lon="87.29181" visible="true" />
<node id="-386" lat="23.55567" lon="87.29181" visible="true"><tag k="begin" v="" /><tag k="altitudeMode" v="" /><tag k="end" v="" /><tag k="Name" v="yyy" /><tag k="timestamp" v="" /><tag k="tessellate" v="-1" /><tag k="extrude" v="-1" /><tag k="visibility" v="-1" /><tag k="drawOrder" v="" /><tag k="icon" v="" /><tag k="description" v="" /></node>
<node id="-390" lat="23.55695" lon="87.28363" visible="true"><tag k="begin" v="" /><tag k="altitudeMode" v="" /><tag k="end" v="" /><tag k="Name" v="xxx" /><tag k="timestamp" v="" /><tag k="tessellate" v="-1" /><tag k="extrude" v="-1" /><tag k="visibility" v="-1" /><tag k="drawOrder" v="" /><tag k="icon" v="" /><tag k="description" v="" /></node>
<node id="-391" lat="23.55709" lon="87.28354" visible="true" />
<node id="-392" lat="23.55718" lon="87.28349" visible="true" />
<node id="-393" lat="23.55722" lon="87.28343" visible="true"><tag k="begin" v="" /><tag k="altitudeMode" v="" /><tag k="end" v="" /><tag k="Name" v="yyy" /><tag k="timestamp" v="" /><tag k="tessellate" v="-1" /><tag k="extrude" v="-1" /><tag k="visibility" v="-1" /><tag k="drawOrder" v="" /><tag k="icon" v="" /><tag k="description" v="" /></node>
<node id="-394" lat="23.55757" lon="87.28352" visible="true"><tag k="begin" v="" /><tag k="altitudeMode" v="" /><tag k="end" v="" /><tag k="Name" v="xxx" /><tag k="timestamp" v="" /><tag k="tessellate" v="-1" /><tag k="extrude" v="-1" /><tag k="visibility" v="-1" /><tag k="drawOrder" v="" /><tag k="icon" v="" /><tag k="description" v="" /></node>
<node id="-395" lat="23.55745" lon="87.28396" visible="true" />
<node id="-396" lat="23.5574" lon="87.28403" visible="true" />
<node id="-397" lat="23.55725" lon="87.28429" visible="true" />
<node id="-398" lat="23.55711" lon="87.28452" visible="true"><tag k="begin" v="" /><tag k="altitudeMode" v="" /><tag k="end" v="" /><tag k="Name" v="yyy" /><tag k="timestamp" v="" /><tag k="tessellate" v="-1" /><tag k="extrude" v="-1" /><tag k="visibility" v="-1" /><tag k="drawOrder" v="" /><tag k="icon" v="" /><tag k="description" v="" /></node>
<node id="-399" lat="23.55718" lon="87.28458" visible="true"><tag k="begin" v="" /><tag k="altitudeMode" v="" /><tag k="end" v="" /><tag k="Name" v="xxx" /><tag k="timestamp" v="" /><tag k="tessellate" v="-1" /><tag k="extrude" v="-1" /><tag k="visibility" v="-1" /><tag k="drawOrder" v="" /><tag k="icon" v="" /><tag k="description" v="" /></node>
<node id="-400" lat="23.55698" lon="87.28469" visible="true"><tag k="begin" v="" /><tag k="altitudeMode" v="" /><tag k="end" v="" /><tag k="Name" v="yyy" /><tag k="timestamp" v="" /><tag k="tessellate" v="-1" /><tag k="extrude" v="-1" /><tag k="visibility" v="-1" /><tag k="drawOrder" v="" /><tag k="icon" v="" /><tag k="description" v="" /></node>
<node id="-404" lat="23.55665" lon="87.2862" visible="true"><tag k="begin" v="" /><tag k="altitudeMode" v="" /><tag k="end" v="" /><tag k="Name" v="xxx" /><tag k="timestamp" v="" /><tag k="tessellate" v="-1" /><tag k="extrude" v="-1" /><tag k="visibility" v="-1" /><tag k="drawOrder" v="" /><tag k="icon" v="" /><tag k="description" v="" /></node>
<node id="-405" lat="23.55711" lon="87.28596" visible="true"><tag k="begin" v="" /><tag k="altitudeMode" v="" /><tag k="end" v="" /><tag k="Name" v="xxx" /><tag k="timestamp" v="" /><tag k="tessellate" v="-1" /><tag k="extrude" v="-1" /><tag k="visibility" v="-1" /><tag k="drawOrder" v="" /><tag k="icon" v="" /><tag k="description" v="" /></node>
<node id="-409" lat="23.55679" lon="87.28677" visible="true"><tag k="begin" v="" /><tag k="altitudeMode" v="" /><tag k="end" v="" /><tag k="Name" v="yyy" /><tag k="timestamp" v="" /><tag k="tessellate" v="-1" /><tag k="extrude" v="-1" /><tag k="visibility" v="-1" /><tag k="drawOrder" v="" /><tag k="icon" v="" /><tag k="description" v="" /></node>
<node id="-413" lat="23.5567" lon="87.28722" visible="true"><tag k="begin" v="" /><tag k="altitudeMode" v="" /><tag k="end" v="" /><tag k="Name" v="xxx" /><tag k="timestamp" v="" /><tag k="tessellate" v="-1" /><tag k="extrude" v="-1" /><tag k="visibility" v="-1" /><tag k="drawOrder" v="" /><tag k="icon" v="" /><tag k="description" v="" /></node>
<node id="-414" lat="23.55681" lon="87.28776" visible="true"><tag k="begin" v="" /><tag k="altitudeMode" v="" /><tag k="end" v="" /><tag k="Name" v="yyy" /><tag k="timestamp" v="" /><tag k="tessellate" v="-1" /><tag k="extrude" v="-1" /><tag k="visibility" v="-1" /><tag k="drawOrder" v="" /><tag k="icon" v="" /><tag k="description" v="" /></node>
<node id="-418" lat="23.55697" lon="87.29071" visible="true" />
<node id="-419" lat="23.55697" lon="87.29072" visible="true"><tag k="begin" v="" /><tag k="altitudeMode" v="" /><tag k="end" v="" /><tag k="Name" v="xxx" /><tag k="timestamp" v="" /><tag k="tessellate" v="-1" /><tag k="extrude" v="-1" /><tag k="visibility" v="-1" /><tag k="drawOrder" v="" /><tag k="icon" v="" /><tag k="description" v="" /></node>
<node id="-423" lat="23.55698" lon="87.29096" visible="true"><tag k="begin" v="" /><tag k="altitudeMode" v="" /><tag k="end" v="" /><tag k="Name" v="xxx" /><tag k="timestamp" v="" /><tag k="tessellate" v="-1" /><tag k="extrude" v="-1" /><tag k="visibility" v="-1" /><tag k="drawOrder" v="" /><tag k="icon" v="" /><tag k="description" v="" /></node>
<node id="-424" lat="23.55674" lon="87.29096" visible="true"><tag k="begin" v="" /><tag k="altitudeMode" v="" /><tag k="end" v="" /><tag k="Name" v="yyy" /><tag k="timestamp" v="" /><tag k="tessellate" v="-1" /><tag k="extrude" v="-1" /><tag k="visibility" v="-1" /><tag k="drawOrder" v="" /><tag k="icon" v="" /><tag k="description" v="" /></node>
<node id="-425" lat="23.55681" lon="87.29173" visible="true"><tag k="begin" v="" /><tag k="altitudeMode" v="" /><tag k="end" v="" /><tag k="Name" v="yyy" /><tag k="timestamp" v="" /><tag k="tessellate" v="-1" /><tag k="extrude" v="-1" /><tag k="visibility" v="-1" /><tag k="drawOrder" v="" /><tag k="icon" v="" /><tag k="description" v="" /></node>
<node id="-429" lat="23.5579" lon="87.28371" visible="true"><tag k="begin" v="" /><tag k="altitudeMode" v="" /><tag k="end" v="" /><tag k="Name" v="yyy" /><tag k="timestamp" v="" /><tag k="tessellate" v="-1" /><tag k="extrude" v="-1" /><tag k="visibility" v="-1" /><tag k="drawOrder" v="" /><tag k="icon" v="" /><tag k="description" v="" /></node>
<node id="-430" lat="23.55787" lon="87.28402" visible="true" />
<node id="-431" lat="23.55781" lon="87.28425" visible="true" />
<node id="-432" lat="23.55775" lon="87.2843" visible="true"><tag k="begin" v="" /><tag k="altitudeMode" v="" /><tag k="end" v="" /><tag k="Name" v="yyy" /><tag k="timestamp" v="" /><tag k="tessellate" v="-1" /><tag k="extrude" v="-1" /><tag k="visibility" v="-1" /><tag k="drawOrder" v="" /><tag k="icon" v="" /><tag k="description" v="" /></node>
<node id="-436" lat="23.55836" lon="87.28392" visible="true" />
<node id="-437" lat="23.55868" lon="87.28376" visible="true" />
<node id="-438" lat="23.55872" lon="87.28375" visible="true"><tag k="begin" v="" /><tag k="altitudeMode" v="" /><tag k="end" v="" /><tag k="Name" v="yyy" /><tag k="timestamp" v="" /><tag k="tessellate" v="-1" /><tag k="extrude" v="-1" /><tag k="visibility" v="-1" /><tag k="drawOrder" v="" /><tag k="icon" v="" /><tag k="description" v="" /></node>
<node id="-439" lat="23.55878" lon="87.28391" visible="true" />
<node id="-440" lat="23.55894" lon="87.28439" visible="true" />
<node id="-441" lat="23.55907" lon="87.28466" visible="true" />
<node id="-442" lat="23.55903" lon="87.28468" visible="true" />
<node id="-443" lat="23.55902" lon="87.28469" visible="true" />
<node id="-444" lat="23.559" lon="87.28471" visible="true" />
<node id="-445" lat="23.55899" lon="87.28474" visible="true" />
<node id="-446" lat="23.55886" lon="87.28481" visible="true" />
<node id="-447" lat="23.55869" lon="87.28497" visible="true" />
<node id="-448" lat="23.55856" lon="87.28511" visible="true" />
<node id="-449" lat="23.55839" lon="87.28524" visible="true"><tag k="begin" v="" /><tag k="altitudeMode" v="" /><tag k="end" v="" /><tag k="Name" v="xxx" /><tag k="timestamp" v="" /><tag k="tessellate" v="-1" /><tag k="extrude" v="-1" /><tag k="visibility" v="-1" /><tag k="drawOrder" v="" /><tag k="icon" v="" /><tag k="description" v="" /></node>
<node id="-450" lat="23.55811" lon="87.2854" visible="true"><tag k="begin" v="" /><tag k="altitudeMode" v="" /><tag k="end" v="" /><tag k="Name" v="yyy" /><tag k="timestamp" v="" /><tag k="tessellate" v="-1" /><tag k="extrude" v="-1" /><tag k="visibility" v="-1" /><tag k="drawOrder" v="" /><tag k="icon" v="" /><tag k="description" v="" /></node>
<node id="-451" lat="23.55817" lon="87.2856" visible="true" />
<node id="-452" lat="23.55818" lon="87.28567" visible="true"><tag k="begin" v="" /><tag k="altitudeMode" v="" /><tag k="end" v="" /><tag k="Name" v="xxx" /><tag k="timestamp" v="" /><tag k="tessellate" v="-1" /><tag k="extrude" v="-1" /><tag k="visibility" v="-1" /><tag k="drawOrder" v="" /><tag k="icon" v="" /><tag k="description" v="" /></node>
<node id="-456" lat="23.55841" lon="87.28677" visible="true"><tag k="begin" v="" /><tag k="altitudeMode" v="" /><tag k="end" v="" /><tag k="Name" v="xxx" /><tag k="timestamp" v="" /><tag k="tessellate" v="-1" /><tag k="extrude" v="-1" /><tag k="visibility" v="-1" /><tag k="drawOrder" v="" /><tag k="icon" v="" /><tag k="description" v="" /></node>
<node id="-457" lat="23.55823" lon="87.2868" visible="true"><tag k="begin" v="" /><tag k="altitudeMode" v="" /><tag k="end" v="" /><tag k="Name" v="xxx" /><tag k="timestamp" v="" /><tag k="tessellate" v="-1" /><tag k="extrude" v="-1" /><tag k="visibility" v="-1" /><tag k="drawOrder" v="" /><tag k="icon" v="" /><tag k="description" v="" /></node>
<node id="-458" lat="23.55799" lon="87.28686" visible="true"><tag k="begin" v="" /><tag k="altitudeMode" v="" /><tag k="end" v="" /><tag k="Name" v="xxx" /><tag k="timestamp" v="" /><tag k="tessellate" v="-1" /><tag k="extrude" v="-1" /><tag k="visibility" v="-1" /><tag k="drawOrder" v="" /><tag k="icon" v="" /><tag k="description" v="" /></node>
<node id="-459" lat="23.55796" lon="87.28672" visible="true"><tag k="begin" v="" /><tag k="altitudeMode" v="" /><tag k="end" v="" /><tag k="Name" v="yyy" /><tag k="timestamp" v="" /><tag k="tessellate" v="-1" /><tag k="extrude" v="-1" /><tag k="visibility" v="-1" /><tag k="drawOrder" v="" /><tag k="icon" v="" /><tag k="description" v="" /></node>
<node id="-463" lat="23.55831" lon="87.28721" visible="true" />
<node id="-464" lat="23.55796" lon="87.2873" visible="true"><tag k="begin" v="" /><tag k="altitudeMode" v="" /><tag k="end" v="" /><tag k="Name" v="yyy" /><tag k="timestamp" v="" /><tag k="tessellate" v="-1" /><tag k="extrude" v="-1" /><tag k="visibility" v="-1" /><tag k="drawOrder" v="" /><tag k="icon" v="" /><tag k="description" v="" /></node>
<node id="-465" lat="23.55804" lon="87.2877" visible="true"><tag k="begin" v="" /><tag k="altitudeMode" v="" /><tag k="end" v="" /><tag k="Name" v="yyy" /><tag k="timestamp" v="" /><tag k="tessellate" v="-1" /><tag k="extrude" v="-1" /><tag k="visibility" v="-1" /><tag k="drawOrder" v="" /><tag k="icon" v="" /><tag k="description" v="" /></node>
<node id="-469" lat="23.55764" lon="87.28694" visible="true" />
<node id="-470" lat="23.55768" lon="87.28718" visible="true"><tag k="begin" v="" /><tag k="altitudeMode" v="" /><tag k="end" v="" /><tag k="Name" v="yyy" /><tag k="timestamp" v="" /><tag k="tessellate" v="-1" /><tag k="extrude" v="-1" /><tag k="visibility" v="-1" /><tag k="drawOrder" v="" /><tag k="icon" v="" /><tag k="description" v="" /></node>
<node id="-471" lat="23.55771" lon="87.28736" visible="true"><tag k="begin" v="" /><tag k="altitudeMode" v="" /><tag k="end" v="" /><tag k="Name" v="xxx" /><tag k="timestamp" v="" /><tag k="tessellate" v="-1" /><tag k="extrude" v="-1" /><tag k="visibility" v="-1" /><tag k="drawOrder" v="" /><tag k="icon" v="" /><tag k="description" v="" /></node>
<node id="-475" lat="23.55764" lon="87.28738" visible="true" />
<node id="-476" lat="23.55762" lon="87.28742" visible="true" />
<node id="-477" lat="23.55779" lon="87.28834" visible="true" />
<node id="-478" lat="23.55722" lon="87.28849" visible="true" />
<node id="-479" lat="23.55743" lon="87.28949" visible="true" />
<node id="-480" lat="23.55786" lon="87.2894" visible="true" />
<node id="-481" lat="23.55791" lon="87.28972" visible="true" />
<node id="-482" lat="23.55794" lon="87.28972" visible="true"><tag k="begin" v="" /><tag k="altitudeMode" v="" /><tag k="end" v="" /><tag k="Name" v="yyy" /><tag k="timestamp" v="" /><tag k="tessellate" v="-1" /><tag k="extrude" v="-1" /><tag k="visibility" v="-1" /><tag k="drawOrder" v="" /><tag k="icon" v="" /><tag k="description" v="" /></node>
<node id="-483" lat="23.558" lon="87.28973" visible="true" />
<node id="-484" lat="23.55802" lon="87.28977" visible="true" />
<node id="-485" lat="23.55819" lon="87.28972" visible="true" />
<node id="-486" lat="23.55834" lon="87.28969" visible="true"><tag k="begin" v="" /><tag k="altitudeMode" v="" /><tag k="end" v="" /><tag k="Name" v="xxx" /><tag k="timestamp" v="" /><tag k="tessellate" v="-1" /><tag k="extrude" v="-1" /><tag k="visibility" v="-1" /><tag k="drawOrder" v="" /><tag k="icon" v="" /><tag k="description" v="" /></node>
<node id="-487" lat="23.55812" lon="87.28868" visible="true"><tag k="begin" v="" /><tag k="altitudeMode" v="" /><tag k="end" v="" /><tag k="Name" v="yyy" /><tag k="timestamp" v="" /><tag k="tessellate" v="-1" /><tag k="extrude" v="-1" /><tag k="visibility" v="-1" /><tag k="drawOrder" v="" /><tag k="icon" v="" /><tag k="description" v="" /></node>
<node id="-491" lat="23.55767" lon="87.28978" visible="true" />
<node id="-492" lat="23.55783" lon="87.29071" visible="true"><tag k="begin" v="" /><tag k="altitudeMode" v="" /><tag k="end" v="" /><tag k="Name" v="xxx" /><tag k="timestamp" v="" /><tag k="tessellate" v="-1" /><tag k="extrude" v="-1" /><tag k="visibility" v="-1" /><tag k="drawOrder" v="" /><tag k="icon" v="" /><tag k="description" v="" /></node>
<node id="-496" lat="23.55781" lon="87.29098" visible="true"><tag k="begin" v="" /><tag k="altitudeMode" v="" /><tag k="end" v="" /><tag k="Name" v="yyy" /><tag k="timestamp" v="" /><tag k="tessellate" v="-1" /><tag k="extrude" v="-1" /><tag k="visibility" v="-1" /><tag k="drawOrder" v="" /><tag k="icon" v="" /><tag k="description" v="" /></node>
<node id="-497" lat="23.55799" lon="87.29098" visible="true"><tag k="begin" v="" /><tag k="altitudeMode" v="" /><tag k="end" v="" /><tag k="Name" v="xxx" /><tag k="timestamp" v="" /><tag k="tessellate" v="-1" /><tag k="extrude" v="-1" /><tag k="visibility" v="-1" /><tag k="drawOrder" v="" /><tag k="icon" v="" /><tag k="description" v="" /></node>
<node id="-498" lat="23.55799" lon="87.29132" visible="true" />
<node id="-499" lat="23.55809" lon="87.29145" visible="true" />
<node id="-500" lat="23.5581" lon="87.29171" visible="true"><tag k="begin" v="" /><tag k="altitudeMode" v="" /><tag k="end" v="" /><tag k="Name" v="yyy" /><tag k="timestamp" v="" /><tag k="tessellate" v="-1" /><tag k="extrude" v="-1" /><tag k="visibility" v="-1" /><tag k="drawOrder" v="" /><tag k="icon" v="" /><tag k="description" v="" /></node>
<node id="-504" lat="23.55895" lon="87.28362" visible="true"><tag k="begin" v="" /><tag k="altitudeMode" v="" /><tag k="end" v="" /><tag k="Name" v="xxx" /><tag k="timestamp" v="" /><tag k="tessellate" v="-1" /><tag k="extrude" v="-1" /><tag k="visibility" v="-1" /><tag k="drawOrder" v="" /><tag k="icon" v="" /><tag k="description" v="" /></node>
<node id="-508" lat="23.55872" lon="87.28587" visible="true"><tag k="begin" v="" /><tag k="altitudeMode" v="" /><tag k="end" v="" /><tag k="Name" v="xxx" /><tag k="timestamp" v="" /><tag k="tessellate" v="-1" /><tag k="extrude" v="-1" /><tag k="visibility" v="-1" /><tag k="drawOrder" v="" /><tag k="icon" v="" /><tag k="description" v="" /></node>
<node id="-512" lat="23.55891" lon="87.28625" visible="true" />
<node id="-513" lat="23.5589" lon="87.28652" visible="true" />
<node id="-514" lat="23.55889" lon="87.28655" visible="true"><tag k="begin" v="" /><tag k="altitudeMode" v="" /><tag k="end" v="" /><tag k="Name" v="yyy" /><tag k="timestamp" v="" /><tag k="tessellate" v="-1" /><tag k="extrude" v="-1" /><tag k="visibility" v="-1" /><tag k="drawOrder" v="" /><tag k="icon" v="" /><tag k="description" v="" /></node>
<node id="-518" lat="23.55848" lon="87.28675" visible="true" />
<node id="-519" lat="23.55852" lon="87.28675" visible="true" />
<node id="-520" lat="23.55854" lon="87.28676" visible="true" />
<node id="-521" lat="23.55876" lon="87.28777" visible="true"><tag k="begin" v="" /><tag k="altitudeMode" v="" /><tag k="end" v="" /><tag k="Name" v="yyy" /><tag k="timestamp" v="" /><tag k="tessellate" v="-1" /><tag k="extrude" v="-1" /><tag k="visibility" v="-1" /><tag k="drawOrder" v="" /><tag k="icon" v="" /><tag k="description" v="" /></node>
<node id="-525" lat="23.55873" lon="87.28955" visible="true" />
<node id="-526" lat="23.5587" lon="87.28943" visible="true" />
<node id="-527" lat="23.55896" lon="87.28933" visible="true" />
<node id="-528" lat="23.55884" lon="87.28876" visible="true"><tag k="begin" v="" /><tag k="altitudeMode" v="" /><tag k="end" v="" /><tag k="Name" v="xxx" /><tag k="timestamp" v="" /><tag k="tessellate" v="-1" /><tag k="extrude" v="-1" /><tag k="visibility" v="-1" /><tag k="drawOrder" v="" /><tag k="icon" v="" /><tag k="description" v="" /></node>
<node id="-532" lat="23.55896" lon="87.28937" visible="true" />
<node id="-533" lat="23.55898" lon="87.28972" visible="true"><tag k="begin" v="" /><tag k="altitudeMode" v="" /><tag k="end" v="" /><tag k="Name" v="xxx" /><tag k="timestamp" v="" /><tag k="tessellate" v="-1" /><tag k="extrude" v="-1" /><tag k="visibility" v="-1" /><tag k="drawOrder" v="" /><tag k="icon" v="" /><tag k="description" v="" /></node>
<node id="-537" lat="23.55899" lon="87.29072" visible="true"><tag k="begin" v="" /><tag k="altitudeMode" v="" /><tag k="end" v="" /><tag k="Name" v="xxx" /><tag k="timestamp" v="" /><tag k="tessellate" v="-1" /><tag k="extrude" v="-1" /><tag k="visibility" v="-1" /><tag k="drawOrder" v="" /><tag k="icon" v="" /><tag k="description" v="" /></node>
<node id="-541" lat="23.55899" lon="87.29098" visible="true"><tag k="begin" v="" /><tag k="altitudeMode" v="" /><tag k="end" v="" /><tag k="Name" v="yyy" /><tag k="timestamp" v="" /><tag k="tessellate" v="-1" /><tag k="extrude" v="-1" /><tag k="visibility" v="-1" /><tag k="drawOrder" v="" /><tag k="icon" v="" /><tag k="description" v="" /></node>
<node id="-542" lat="23.55951" lon="87.29096" visible="true" />
<node id="-543" lat="23.55952" lon="87.29098" visible="true" />
<node id="-544" lat="23.55956" lon="87.29106" visible="true" />
<node id="-545" lat="23.55964" lon="87.29111" visible="true" />
<node id="-546" lat="23.55968" lon="87.29111" visible="true" />
<node id="-547" lat="23.55962" lon="87.29309" visible="true" />
<node id="-548" lat="23.55927" lon="87.29309" visible="true" />
<node id="-549" lat="23.5591" lon="87.29305" visible="true" />
<node id="-550" lat="23.55913" lon="87.29226" visible="true" />
<node id="-551" lat="23.55914" lon="87.29225" visible="true"><tag k="begin" v="" /><tag k="altitudeMode" v="" /><tag k="end" v="" /><tag k="Name" v="yyy" /><tag k="timestamp" v="" /><tag k="tessellate" v="-1" /><tag k="extrude" v="-1" /><tag k="visibility" v="-1" /><tag k="drawOrder" v="" /><tag k="icon" v="" /><tag k="description" v="" /></node>
<node id="-555" lat="23.55206" lon="87.28366" visible="true" />
<node id="-556" lat="23.55209" lon="87.28365" visible="true" />
<node id="-557" lat="23.55225" lon="87.28372" visible="true" />
<node id="-558" lat="23.55235" lon="87.28377" visible="true"><tag k="begin" v="" /><tag k="altitudeMode" v="" /><tag k="end" v="" /><tag k="Name" v="xxx" /><tag k="timestamp" v="" /><tag k="tessellate" v="-1" /><tag k="extrude" v="-1" /><tag k="visibility" v="-1" /><tag k="drawOrder" v="" /><tag k="icon" v="" /><tag k="description" v="" /></node>
<node id="-559" lat="23.55248" lon="87.2835" visible="true" />
<node id="-560" lat="23.55269" lon="87.28311" visible="true" />
<node id="-564" lat="23.55248" lon="87.28388" visible="true"><tag k="begin" v="" /><tag k="altitudeMode" v="" /><tag k="end" v="" /><tag k="Name" v="yyy" /><tag k="timestamp" v="" /><tag k="tessellate" v="-1" /><tag k="extrude" v="-1" /><tag k="visibility" v="-1" /><tag k="drawOrder" v="" /><tag k="icon" v="" /><tag k="description" v="" /></node>
<node id="-565" lat="23.55291" lon="87.28426" visible="true" />
<node id="-569" lat="23.55356" lon="87.2835" visible="true" />
<node id="-570" lat="23.55359" lon="87.28353" visible="true" />
<node id="-574" lat="23.5544" lon="87.2842" visible="true" />
<node id="-578" lat="23.55541" lon="87.28387" visible="true" />
<node id="-579" lat="23.5556" lon="87.2838" visible="true" />
<node id="-580" lat="23.55564" lon="87.28381" visible="true"><tag k="begin" v="" /><tag k="altitudeMode" v="" /><tag k="end" v="" /><tag k="Name" v="xxx" /><tag k="timestamp" v="" /><tag k="tessellate" v="-1" /><tag k="extrude" v="-1" /><tag k="visibility" v="-1" /><tag k="drawOrder" v="" /><tag k="icon" v="" /><tag k="description" v="" /></node>
<node id="-581" lat="23.556" lon="87.28397" visible="true" />
<node id="-582" lat="23.55607" lon="87.28398" visible="true"><tag k="begin" v="" /><tag k="altitudeMode" v="" /><tag k="end" v="" /><tag k="Name" v="yyy" /><tag k="timestamp" v="" /><tag k="tessellate" v="-1" /><tag k="extrude" v="-1" /><tag k="visibility" v="-1" /><tag k="drawOrder" v="" /><tag k="icon" v="" /><tag k="description" v="" /></node>
<node id="-586" lat="23.55691" lon="87.28431" visible="true" />
<node id="-590" lat="23.55588" lon="87.28323" visible="true" />
<node id="-591" lat="23.55611" lon="87.28283" visible="true" />
<node id="-592" lat="23.5562" lon="87.28291" visible="true" />
<node id="-593" lat="23.5563" lon="87.283" visible="true" />
<node id="-594" lat="23.55661" lon="87.28318" visible="true" />
<node id="-595" lat="23.5569" lon="87.28328" visible="true" />
<node id="-596" lat="23.55713" lon="87.28339" visible="true" />
<node id="-600" lat="23.55767" lon="87.28317" visible="true" />
<node id="-601" lat="23.55786" lon="87.28288" visible="true" />
<node id="-602" lat="23.55799" lon="87.28277" visible="true" />
<node id="-603" lat="23.55826" lon="87.28294" visible="true"><tag k="begin" v="" /><tag k="altitudeMode" v="" /><tag k="end" v="" /><tag k="Name" v="xxx" /><tag k="timestamp" v="" /><tag k="tessellate" v="-1" /><tag k="extrude" v="-1" /><tag k="visibility" v="-1" /><tag k="drawOrder" v="" /><tag k="icon" v="" /><tag k="description" v="" /></node>
<node id="-604" lat="23.55819" lon="87.28308" visible="true" />
<node id="-605" lat="23.55812" lon="87.28309" visible="true" />
<node id="-606" lat="23.55811" lon="87.2831" visible="true" />
<node id="-607" lat="23.55792" lon="87.28349" visible="true" />
<node id="-608" lat="23.5579" lon="87.28362" visible="true" />
<node id="-612" lat="23.55748" lon="87.28445" visible="true" />
<node id="-616" lat="23.55836" lon="87.28303" visible="true" />
<node id="-617" lat="23.55863" lon="87.28342" visible="true" />
<node id="-618" lat="23.55868" lon="87.28354" visible="true" />
<node id="-622" lat="23.55238" lon="87.28407" visible="true" />
<node id="-626" lat="23.55529" lon="87.28489" visible="true" />
<node id="-627" lat="23.55536" lon="87.28492" visible="true" />
<node id="-628" lat="23.55563" lon="87.28494" visible="true" />
<node id="-629" lat="23.55574" lon="87.28495" visible="true" />
<node id="-630" lat="23.55586" lon="87.28495" visible="true" />
<node id="-634" lat="23.55771" lon="87.28562" visible="true"><tag k="begin" v="" /><tag k="altitudeMode" v="" /><tag k="end" v="" /><tag k="Name" v="xxx" /><tag k="timestamp" v="" /><tag k="tessellate" v="-1" /><tag k="extrude" v="-1" /><tag k="visibility" v="-1" /><tag k="drawOrder" v="" /><tag k="icon" v="" /><tag k="description" v="" /></node>
<node id="-638" lat="23.5521" lon="87.28677" visible="true"><tag k="begin" v="" /><tag k="altitudeMode" v="" /><tag k="end" v="" /><tag k="Name" v="xxx" /><tag k="timestamp" v="" /><tag k="tessellate" v="-1" /><tag k="extrude" v="-1" /><tag k="visibility" v="-1" /><tag k="drawOrder" v="" /><tag k="icon" v="" /><tag k="description" v="" /></node>
<node id="-639" lat="23.55225" lon="87.28661" visible="true" />
<node id="-640" lat="23.55232" lon="87.28655" visible="true" />
<node id="-641" lat="23.55237" lon="87.28655" visible="true" />
<node id="-642" lat="23.55243" lon="87.28659" visible="true" />
<node id="-643" lat="23.5526" lon="87.28676" visible="true" />
<node id="-644" lat="23.55281" lon="87.28697" visible="true"><tag k="begin" v="" /><tag k="altitudeMode" v="" /><tag k="end" v="" /><tag k="Name" v="yyy" /><tag k="timestamp" v="" /><tag k="tessellate" v="-1" /><tag k="extrude" v="-1" /><tag k="visibility" v="-1" /><tag k="drawOrder" v="" /><tag k="icon" v="" /><tag k="description" v="" /></node>
<node id="-648" lat="23.55736" lon="87.28725" visible="true" />
<node id="-652" lat="23.5578" lon="87.28592" visible="true" />
<node id="-656" lat="23.55711" lon="87.28955" visible="true" />
<node id="-657" lat="23.55718" lon="87.28988" visible="true" />
<node id="-661" lat="23.55475" lon="87.29093" visible="true" />
<node id="-662" lat="23.55482" lon="87.29093" visible="true" />
<node id="-666" lat="23.55185" lon="87.2909" visible="true"><tag k="begin" v="" /><tag k="altitudeMode" v="" /><tag k="end" v="" /><tag k="Name" v="xxx" /><tag k="timestamp" v="" /><tag k="tessellate" v="-1" /><tag k="extrude" v="-1" /><tag k="visibility" v="-1" /><tag k="drawOrder" v="" /><tag k="icon" v="" /><tag k="description" v="" /></node>
<node id="-667" lat="23.55264" lon="87.29094" visible="true" />
<node id="-671" lat="23.55516" lon="87.2908" visible="true"><tag k="begin" v="" /><tag k="altitudeMode" v="" /><tag k="end" v="" /><tag k="Name" v="xxx" /><tag k="timestamp" v="" /><tag k="tessellate" v="-1" /><tag k="extrude" v="-1" /><tag k="visibility" v="-1" /><tag k="drawOrder" v="" /><tag k="icon" v="" /><tag k="description" v="" /></node>
<node id="-672" lat="23.55523" lon="87.29075" visible="true" />
<node id="-673" lat="23.55533" lon="87.29075" visible="true" />
<node id="-674" lat="23.5554" lon="87.2908" visible="true"><tag k="begin" v="" /><tag k="altitudeMode" v="" /><tag k="end" v="" /><tag k="Name" v="yyy" /><tag k="timestamp" v="" /><tag k="tessellate" v="-1" /><tag k="extrude" v="-1" /><tag k="visibility" v="-1" /><tag k="drawOrder" v="" /><tag k="icon" v="" /><tag k="description" v="" /></node>
<node id="-678" lat="23.55625" lon="87.29094" visible="true" />
<node id="-682" lat="23.55731" lon="87.29097" visible="true" />
<node id="-686" lat="23.55821" lon="87.29098" visible="true" />
<node id="-687" lat="23.55885" lon="87.29098" visible="true" />
<way id="-1" visible="true"><nd ref="-2" /><nd ref="-3" /><nd ref="-4" /><nd ref="-5" /><tag k="begin" v="" /><tag k="altitudeMode" v="" /><tag k="end" v="" /><tag k="Name" v="Directions from  xxx to yyy" /><tag k="timestamp" v="" /><tag k="tessellate" v="1" /><tag k="extrude" v="-1" /><tag k="visibility" v="-1" /><tag k="drawOrder" v="" /><tag k="icon" v="" /><tag k="description" v="" /></way>
<way id="-8" visible="true"><nd ref="-4" /><nd ref="-9" /><nd ref="-10" /><nd ref="-11" /><nd ref="-12" /><nd ref="-13" /><nd ref="-14" /><nd ref="-15" /><nd ref="-16" /><nd ref="-17" /><nd ref="-18" /><nd ref="-19" /><nd ref="-20" /><nd ref="-21" /><nd ref="-22" /><nd ref="-23" /><nd ref="-24" /><nd ref="-25" /><nd ref="-26" /><nd ref="-27" /><nd ref="-28" /><nd ref="-29" /><tag k="begin" v="" /><tag k="altitudeMode" v="" /><tag k="end" v="" /><tag k="Name" v="Directions from  xxx to yyy" /><tag k="timestamp" v="" /><tag k="tessellate" v="1" /><tag k="extrude" v="-1" /><tag k="visibility" v="-1" /><tag k="drawOrder" v="" /><tag k="icon" v="" /><tag k="description" v="" /></way>
<way id="-32" visible="true"><nd ref="-12" /><nd ref="-33" /><nd ref="-34" /><nd ref="-35" /><nd ref="-36" /><nd ref="-37" /><nd ref="-38" /><nd ref="-39" /><nd ref="-40" /><nd ref="-41" /><nd ref="-29" /><tag k="begin" v="" /><tag k="altitudeMode" v="" /><tag k="end" v="" /><tag k="Name" v="Directions from  xxx to yyy" /><tag k="timestamp" v="" /><tag k="tessellate" v="1" /><tag k="extrude" v="-1" /><tag k="visibility" v="-1" /><tag k="drawOrder" v="" /><tag k="icon" v="" /><tag k="description" v="" /></way>
<way id="-44" visible="true"><nd ref="-3" /><nd ref="-45" /><nd ref="-46" /><nd ref="-47" /><nd ref="-48" /><nd ref="-49" /><nd ref="-50" /><nd ref="-51" /><nd ref="-52" /><tag k="begin" v="" /><tag k="altitudeMode" v="" /><tag k="end" v="" /><tag k="Name" v="Directions from  xxx to yyy" /><tag k="timestamp" v="" /><tag k="tessellate" v="1" /><tag k="extrude" v="-1" /><tag k="visibility" v="-1" /><tag k="drawOrder" v="" /><tag k="icon" v="" /><tag k="description" v="" /></way>
<way id="-55" visible="true"><nd ref="-37" /><nd ref="-56" /><nd ref="-57" /><tag k="begin" v="" /><tag k="altitudeMode" v="" /><tag k="end" v="" /><tag k="Name" v="Directions from  xxx to yyy" /><tag k="timestamp" v="" /><tag k="tessellate" v="1" /><tag k="extrude" v="-1" /><tag k="visibility" v="-1" /><tag k="drawOrder" v="" /><tag k="icon" v="" /><tag k="description" v="" /></way>
<way id="-60" visible="true"><nd ref="-57" /><nd ref="-61" /><nd ref="-62" /><nd ref="-63" /><nd ref="-64" /><nd ref="-65" /><nd ref="-66" /><tag k="begin" v="" /><tag k="altitudeMode" v="" /><tag k="end" v="" /><tag k="Name" v="Directions from  xxx to yyy" /><tag k="timestamp" v="" /><tag k="tessellate" v="1" /><tag k="extrude" v="-1" /><tag k="visibility" v="-1" /><tag k="drawOrder" v="" /><tag k="icon" v="" /><tag k="description" v="" /></way>
<way id="-69" visible="true"><nd ref="-65" /><nd ref="-70" /><nd ref="-71" /><tag k="begin" v="" /><tag k="altitudeMode" v="" /><tag k="end" v="" /><tag k="Name" v="Directions from  xxx to yyy" /><tag k="timestamp" v="" /><tag k="tessellate" v="1" /><tag k="extrude" v="-1" /><tag k="visibility" v="-1" /><tag k="drawOrder" v="" /><tag k="icon" v="" /><tag k="description" v="" /></way>
<way id="-74" visible="true"><nd ref="-70" /><nd ref="-75" /><nd ref="-76" /><nd ref="-77" /><nd ref="-78" /><tag k="begin" v="" /><tag k="altitudeMode" v="" /><tag k="end" v="" /><tag k="Name" v="Directions from  xxx to yyy" /><tag k="timestamp" v="" /><tag k="tessellate" v="1" /><tag k="extrude" v="-1" /><tag k="visibility" v="-1" /><tag k="drawOrder" v="" /><tag k="icon" v="" /><tag k="description" v="" /></way>
<way id="-81" visible="true"><nd ref="-78" /><nd ref="-82" /><tag k="begin" v="" /><tag k="altitudeMode" v="" /><tag k="end" v="" /><tag k="Name" v="Directions from  xxx to yyy" /><tag k="timestamp" v="" /><tag k="tessellate" v="1" /><tag k="extrude" v="-1" /><tag k="visibility" v="-1" /><tag k="drawOrder" v="" /><tag k="icon" v="" /><tag k="description" v="" /></way>
<way id="-85" visible="true"><nd ref="-82" /><nd ref="-86" /><nd ref="-87" /><tag k="begin" v="" /><tag k="altitudeMode" v="" /><tag k="end" v="" /><tag k="Name" v="Directions from  xxx to yyy" /><tag k="timestamp" v="" /><tag k="tessellate" v="1" /><tag k="extrude" v="-1" /><tag k="visibility" v="-1" /><tag k="drawOrder" v="" /><tag k="icon" v="" /><tag k="description" v="" /></way>
<way id="-90" visible="true"><nd ref="-91" /><nd ref="-92" /><nd ref="-20" /><tag k="begin" v="" /><tag k="altitudeMode" v="" /><tag k="end" v="" /><tag k="Name" v="Directions from  xxx to yyy" /><tag k="timestamp" v="" /><tag k="tessellate" v="1" /><tag k="extrude" v="-1" /><tag k="visibility" v="-1" /><tag k="drawOrder" v="" /><tag k="icon" v="" /><tag k="description" v="" /></way>
<way id="-95" visible="true"><nd ref="-92" /><nd ref="-96" /><nd ref="-97" /><nd ref="-98" /><nd ref="-99" /><nd ref="-100" /><nd ref="-101" /><nd ref="-102" /><tag k="begin" v="" /><tag k="altitudeMode" v="" /><tag k="end" v="" /><tag k="Name" v="Directions from  xxx to yyy" /><tag k="timestamp" v="" /><tag k="tessellate" v="1" /><tag k="extrude" v="-1" /><tag k="visibility" v="-1" /><tag k="drawOrder" v="" /><tag k="icon" v="" /><tag k="description" v="" /></way>
<way id="-105" visible="true"><nd ref="-22" /><nd ref="-106" /><nd ref="-107" /><nd ref="-108" /><nd ref="-109" /><nd ref="-110" /><tag k="begin" v="" /><tag k="altitudeMode" v="" /><tag k="end" v="" /><tag k="Name" v="Directions from  xxx to yyy" /><tag k="timestamp" v="" /><tag k="tessellate" v="1" /><tag k="extrude" v="-1" /><tag k="visibility" v="-1" /><tag k="drawOrder" v="" /><tag k="icon" v="" /><tag k="description" v="" /></way>
<way id="-113" visible="true"><nd ref="-107" /><nd ref="-114" /><nd ref="-115" /><nd ref="-116" /><nd ref="-117" /><nd ref="-118" /><nd ref="-119" /><nd ref="-120" /><nd ref="-121" /><tag k="begin" v="" /><tag k="altitudeMode" v="" /><tag k="end" v="" /><tag k="Name" v="Directions from  xxx to yyy" /><tag k="timestamp" v="" /><tag k="tessellate" v="1" /><tag k="extrude" v="-1" /><tag k="visibility" v="-1" /><tag k="drawOrder" v="" /><tag k="icon" v="" /><tag k="description" v="" /></way>
<way id="-124" visible="true"><nd ref="-110" /><nd ref="-125" /><nd ref="-126" /><nd ref="-127" /><nd ref="-128" /><nd ref="-129" /><nd ref="-130" /><nd ref="-131" /><nd ref="-121" /><tag k="begin" v="" /><tag k="altitudeMode" v="" /><tag k="end" v="" /><tag k="Name" v="Directions from  xxx to yyy" /><tag k="timestamp" v="" /><tag k="tessellate" v="1" /><tag k="extrude" v="-1" /><tag k="visibility" v="-1" /><tag k="drawOrder" v="" /><tag k="icon" v="" /><tag k="description" v="" /></way>
<way id="-134" visible="true"><nd ref="-65" /><nd ref="-135" /><tag k="begin" v="" /><tag k="altitudeMode" v="" /><tag k="end" v="" /><tag k="Name" v="Directions from  xxx to yyy" /><tag k="timestamp" v="" /><tag k="tessellate" v="1" /><tag k="extrude" v="-1" /><tag k="visibility" v="-1" /><tag k="drawOrder" v="" /><tag k="icon" v="" /><tag k="description" v="" /></way>
<way id="-138" visible="true"><nd ref="-139" /><nd ref="-140" /><tag k="begin" v="" /><tag k="altitudeMode" v="" /><tag k="end" v="" /><tag k="Name" v="Directions from  xxx to yyy" /><tag k="timestamp" v="" /><tag k="tessellate" v="1" /><tag k="extrude" v="-1" /><tag k="visibility" v="-1" /><tag k="drawOrder" v="" /><tag k="icon" v="" /><tag k="description" v="" /></way>
<way id="-143" visible="true"><nd ref="-144" /><nd ref="-145" /><nd ref="-146" /><nd ref="-147" /><nd ref="-148" /><nd ref="-149" /><tag k="begin" v="" /><tag k="altitudeMode" v="" /><tag k="end" v="" /><tag k="Name" v="Directions from  xxx to yyy" /><tag k="timestamp" v="" /><tag k="tessellate" v="1" /><tag k="extrude" v="-1" /><tag k="visibility" v="-1" /><tag k="drawOrder" v="" /><tag k="icon" v="" /><tag k="description" v="" /></way>
<way id="-152" visible="true"><nd ref="-149" /><nd ref="-153" /><nd ref="-154" /><tag k="begin" v="" /><tag k="altitudeMode" v="" /><tag k="end" v="" /><tag k="Name" v="Directions from  xxx to yyy" /><tag k="timestamp" v="" /><tag k="tessellate" v="1" /><tag k="extrude" v="-1" /><tag k="visibility" v="-1" /><tag k="drawOrder" v="" /><tag k="icon" v="" /><tag k="description" v="" /></way>
<way id="-157" visible="true"><nd ref="-158" /><nd ref="-159" /><nd ref="-160" /><nd ref="-161" /><nd ref="-162" /><tag k="begin" v="" /><tag k="altitudeMode" v="" /><tag k="end" v="" /><tag k="Name" v="Directions from  xxx to yyy" /><tag k="timestamp" v="" /><tag k="tessellate" v="1" /><tag k="extrude" v="-1" /><tag k="visibility" v="-1" /><tag k="drawOrder" v="" /><tag k="icon" v="" /><tag k="description" v="" /></way>
<way id="-165" visible="true"><nd ref="-114" /><nd ref="-166" /><tag k="begin" v="" /><tag k="altitudeMode" v="" /><tag k="end" v="" /><tag k="Name" v="Directions from  xxx to yyy" /><tag k="timestamp" v="" /><tag k="tessellate" v="1" /><tag k="extrude" v="-1" /><tag k="visibility" v="-1" /><tag k="drawOrder" v="" /><tag k="icon" v="" /><tag k="description" v="" /></way>
<way id="-169" visible="true"><nd ref="-170" /><nd ref="-171" /><nd ref="-172" /><nd ref="-173" /><nd ref="-174" /><nd ref="-175" /><nd ref="-176" /><tag k="begin" v="" /><tag k="altitudeMode" v="" /><tag k="end" v="" /><tag k="Name" v="Directions from  xxx to yyy" /><tag k="timestamp" v="" /><tag k="tessellate" v="1" /><tag k="extrude" v="-1" /><tag k="visibility" v="-1" /><tag k="drawOrder" v="" /><tag k="icon" v="" /><tag k="description" v="" /></way>
<way id="-179" visible="true"><nd ref="-166" /><nd ref="-180" /><nd ref="-181" /><nd ref="-182" /><nd ref="-183" /><nd ref="-184" /><nd ref="-185" /><nd ref="-186" /><nd ref="-187" /><nd ref="-188" /><nd ref="-189" /><nd ref="-190" /><nd ref="-191" /><nd ref="-192" /><nd ref="-193" /><nd ref="-194" /><nd ref="-195" /><nd ref="-196" /><nd ref="-197" /><nd ref="-198" /><nd ref="-199" /><nd ref="-200" /><nd ref="-201" /><nd ref="-202" /><nd ref="-203" /><nd ref="-204" /><nd ref="-205" /><nd ref="-206" /><tag k="begin" v="" /><tag k="altitudeMode" v="" /><tag k="end" v="" /><tag k="Name" v="Directions from  xxx to yyy" /><tag k="timestamp" v="" /><tag k="tessellate" v="1" /><tag k="extrude" v="-1" /><tag k="visibility" v="-1" /><tag k="drawOrder" v="" /><tag k="icon" v="" /><tag k="description" v="" /></way>
<way id="-209" visible="true"><nd ref="-205" /><nd ref="-210" /><nd ref="-211" /><nd ref="-212" /><nd ref="-213" /><nd ref="-214" /><nd ref="-215" /><tag k="begin" v="" /><tag k="altitudeMode" v="" /><tag k="end" v="" /><tag k="Name" v="Directions from  xxx to yyy" /><tag k="timestamp" v="" /><tag k="tessellate" v="1" /><tag k="extrude" v="-1" /><tag k="visibility" v="-1" /><tag k="drawOrder" v="" /><tag k="icon" v="" /><tag k="description" v="" /></way>
<way id="-218" visible="true"><nd ref="-215" /><nd ref="-219" /><nd ref="-220" /><nd ref="-221" /><nd ref="-222" /><nd ref="-223" /><tag k="begin" v="" /><tag k="altitudeMode" v="" /><tag k="end" v="" /><tag k="Name" v="Directions from  xxx to yyy" /><tag k="timestamp" v="" /><tag k="tessellate" v="1" /><tag k="extrude" v="-1" /><tag k="visibility" v="-1" /><tag k="drawOrder" v="" /><tag k="icon" v="" /><tag k="description" v="" /></way>
<way id="-226" visible="true"><nd ref="-223" /><nd ref="-227" /><nd ref="-228" /><nd ref="-229" /><tag k="begin" v="" /><tag k="altitudeMode" v="" /><tag k="end" v="" /><tag k="Name" v="Directions from  xxx to yyy" /><tag k="timestamp" v="" /><tag k="tessellate" v="1" /><tag k="extrude" v="-1" /><tag k="visibility" v="-1" /><tag k="drawOrder" v="" /><tag k="icon" v="" /><tag k="description" v="" /></way>
<way id="-232" visible="true"><nd ref="-153" /><nd ref="-233" /><tag k="begin" v="" /><tag k="altitudeMode" v="" /><tag k="end" v="" /><tag k="Name" v="Directions from  xxx to yyy" /><tag k="timestamp" v="" /><tag k="tessellate" v="1" /><tag k="extrude" v="-1" /><tag k="visibility" v="-1" /><tag k="drawOrder" v="" /><tag k="icon" v="" /><tag k="description" v="" /></way>
<way id="-236" visible="true"><nd ref="-233" /><nd ref="-237" /><nd ref="-238" /><nd ref="-239" /><nd ref="-240" /><nd ref="-241" /><tag k="begin" v="" /><tag k="altitudeMode" v="" /><tag k="end" v="" /><tag k="Name" v="Directions from  xxx to yyy" /><tag k="timestamp" v="" /><tag k="tessellate" v="1" /><tag k="extrude" v="-1" /><tag k="visibility" v="-1" /><tag k="drawOrder" v="" /><tag k="icon" v="" /><tag k="description" v="" /></way>
<way id="-244" visible="true"><nd ref="-245" /><nd ref="-246" /><nd ref="-247" /><nd ref="-248" /><nd ref="-249" /><nd ref="-250" /><nd ref="-251" /><nd ref="-252" /><nd ref="-253" /><nd ref="-254" /><nd ref="-255" /><nd ref="-256" /><nd ref="-257" /><nd ref="-258" /><tag k="begin" v="" /><tag k="altitudeMode" v="" /><tag k="end" v="" /><tag k="Name" v="Directions from  xxx to yyy" /><tag k="timestamp" v="" /><tag k="tessellate" v="1" /><tag k="extrude" v="-1" /><tag k="visibility" v="-1" /><tag k="drawOrder" v="" /><tag k="icon" v="" /><tag k="description" v="" /></way>
<way id="-261" visible="true"><nd ref="-258" /><nd ref="-262" /><nd ref="-186" /><tag k="begin" v="" /><tag k="altitudeMode" v="" /><tag k="end" v="" /><tag k="Name" v="Directions from  xxx to yyy" /><tag k="timestamp" v="" /><tag k="tessellate" v="1" /><tag k="extrude" v="-1" /><tag k="visibility" v="-1" /><tag k="drawOrder" v="" /><tag k="icon" v="" /><tag k="description" v="" /></way>
<way id="-265" visible="true"><nd ref="-192" /><nd ref="-266" /><tag k="begin" v="" /><tag k="altitudeMode" v="" /><tag k="end" v="" /><tag k="Name" v="Directions from  xxx to yyy" /><tag k="timestamp" v="" /><tag k="tessellate" v="1" /><tag k="extrude" v="-1" /><tag k="visibility" v="-1" /><tag k="drawOrder" v="" /><tag k="icon" v="" /><tag k="description" v="" /></way>
<way id="-269" visible="true"><nd ref="-266" /><nd ref="-270" /><nd ref="-119" /><tag k="begin" v="" /><tag k="altitudeMode" v="" /><tag k="end" v="" /><tag k="Name" v="Directions from  xxx to yyy" /><tag k="timestamp" v="" /><tag k="tessellate" v="1" /><tag k="extrude" v="-1" /><tag k="visibility" v="-1" /><tag k="drawOrder" v="" /><tag k="icon" v="" /><tag k="description" v="" /></way>
<way id="-273" visible="true"><nd ref="-274" /><nd ref="-275" /><tag k="begin" v="" /><tag k="altitudeMode" v="" /><tag k="end" v="" /><tag k="Name" v="Directions from  xxx to yyy" /><tag k="timestamp" v="" /><tag k="tessellate" v="1" /><tag k="extrude" v="-1" /><tag k="visibility" v="-1" /><tag k="drawOrder" v="" /><tag k="icon" v="" /><tag k="description" v="" /></way>
<way id="-278" visible="true"><nd ref="-200" /><nd ref="-279" /><nd ref="-280" /><tag k="begin" v="" /><tag k="altitudeMode" v="" /><tag k="end" v="" /><tag k="Name" v="Directions from  xxx to yyy" /><tag k="timestamp" v="" /><tag k="tessellate" v="1" /><tag k="extrude" v="-1" /><tag k="visibility" v="-1" /><tag k="drawOrder" v="" /><tag k="icon" v="" /><tag k="description" v="" /></way>
<way id="-283" visible="true"><nd ref="-280" /><nd ref="-284" /><tag k="begin" v="" /><tag k="altitudeMode" v="" /><tag k="end" v="" /><tag k="Name" v="Directions from  xxx to yyy" /><tag k="timestamp" v="" /><tag k="tessellate" v="1" /><tag k="extrude" v="-1" /><tag k="visibility" v="-1" /><tag k="drawOrder" v="" /><tag k="icon" v="" /><tag k="description" v="" /></way>
<way id="-287" visible="true"><nd ref="-284" /><nd ref="-288" /><tag k="begin" v="" /><tag k="altitudeMode" v="" /><tag k="end" v="" /><tag k="Name" v="Directions from  xxx to yyy" /><tag k="timestamp" v="" /><tag k="tessellate" v="1" /><tag k="extrude" v="-1" /><tag k="visibility" v="-1" /><tag k="drawOrder" v="" /><tag k="icon" v="" /><tag k="description" v="" /></way>
<way id="-291" visible="true"><nd ref="-288" /><nd ref="-292" /><nd ref="-293" /><nd ref="-294" /><nd ref="-295" /><nd ref="-296" /><nd ref="-297" /><tag k="begin" v="" /><tag k="altitudeMode" v="" /><tag k="end" v="" /><tag k="Name" v="Directions from  xxx to yyy" /><tag k="timestamp" v="" /><tag k="tessellate" v="1" /><tag k="extrude" v="-1" /><tag k="visibility" v="-1" /><tag k="drawOrder" v="" /><tag k="icon" v="" /><tag k="description" v="" /></way>
<way id="-300" visible="true"><nd ref="-301" /><nd ref="-302" /><nd ref="-303" /><nd ref="-304" /><nd ref="-305" /><nd ref="-306" /><nd ref="-307" /><tag k="begin" v="" /><tag k="altitudeMode" v="" /><tag k="end" v="" /><tag k="Name" v="Directions from  xxx to yyy" /><tag k="timestamp" v="" /><tag k="tessellate" v="1" /><tag k="extrude" v="-1" /><tag k="visibility" v="-1" /><tag k="drawOrder" v="" /><tag k="icon" v="" /><tag k="description" v="" /></way>
<way id="-310" visible="true"><nd ref="-311" /><nd ref="-312" /><nd ref="-313" /><nd ref="-314" /><tag k="begin" v="" /><tag k="altitudeMode" v="" /><tag k="end" v="" /><tag k="Name" v="Directions from  xxx to yyy" /><tag k="timestamp" v="" /><tag k="tessellate" v="1" /><tag k="extrude" v="-1" /><tag k="visibility" v="-1" /><tag k="drawOrder" v="" /><tag k="icon" v="" /><tag k="description" v="" /></way>
<way id="-317" visible="true"><nd ref="-314" /><nd ref="-318" /><nd ref="-319" /><nd ref="-320" /><nd ref="-194" /><tag k="begin" v="" /><tag k="altitudeMode" v="" /><tag k="end" v="" /><tag k="Name" v="Directions from  xxx to yyy" /><tag k="timestamp" v="" /><tag k="tessellate" v="1" /><tag k="extrude" v="-1" /><tag k="visibility" v="-1" /><tag k="drawOrder" v="" /><tag k="icon" v="" /><tag k="description" v="" /></way>
<way id="-323" visible="true"><nd ref="-324" /><nd ref="-325" /><tag k="begin" v="" /><tag k="altitudeMode" v="" /><tag k="end" v="" /><tag k="Name" v="Directions from  xxx to yyy" /><tag k="timestamp" v="" /><tag k="tessellate" v="1" /><tag k="extrude" v="-1" /><tag k="visibility" v="-1" /><tag k="drawOrder" v="" /><tag k="icon" v="" /><tag k="description" v="" /></way>
<way id="-328" visible="true"><nd ref="-325" /><nd ref="-329" /><nd ref="-330" /><nd ref="-331" /><nd ref="-332" /><tag k="begin" v="" /><tag k="altitudeMode" v="" /><tag k="end" v="" /><tag k="Name" v="Directions from  xxx to yyy" /><tag k="timestamp" v="" /><tag k="tessellate" v="1" /><tag k="extrude" v="-1" /><tag k="visibility" v="-1" /><tag k="drawOrder" v="" /><tag k="icon" v="" /><tag k="description" v="" /></way>
<way id="-335" visible="true"><nd ref="-330" /><nd ref="-336" /><nd ref="-337" /><nd ref="-338" /><nd ref="-339" /><nd ref="-340" /><nd ref="-341" /><nd ref="-342" /><nd ref="-343" /><nd ref="-344" /><nd ref="-345" /><nd ref="-346" /><nd ref="-347" /><nd ref="-348" /><nd ref="-349" /><nd ref="-350" /><nd ref="-351" /><nd ref="-352" /><nd ref="-353" /><nd ref="-354" /><tag k="begin" v="" /><tag k="altitudeMode" v="" /><tag k="end" v="" /><tag k="Name" v="Directions from  xxx to yyy" /><tag k="timestamp" v="" /><tag k="tessellate" v="1" /><tag k="extrude" v="-1" /><tag k="visibility" v="-1" /><tag k="drawOrder" v="" /><tag k="icon" v="" /><tag k="description" v="" /></way>
<way id="-357" visible="true"><nd ref="-200" /><nd ref="-358" /><nd ref="-292" /><tag k="begin" v="" /><tag k="altitudeMode" v="" /><tag k="end" v="" /><tag k="Name" v="Directions from  xxx to yyy" /><tag k="timestamp" v="" /><tag k="tessellate" v="1" /><tag k="extrude" v="-1" /><tag k="visibility" v="-1" /><tag k="drawOrder" v="" /><tag k="icon" v="" /><tag k="description" v="" /></way>
<way id="-361" visible="true"><nd ref="-292" /><nd ref="-362" /><nd ref="-363" /><nd ref="-364" /><nd ref="-365" /><nd ref="-366" /><nd ref="-367" /><nd ref="-368" /><nd ref="-369" /><nd ref="-370" /><nd ref="-354" /><tag k="begin" v="" /><tag k="altitudeMode" v="" /><tag k="end" v="" /><tag k="Name" v="Directions from  xxx to yyy" /><tag k="timestamp" v="" /><tag k="tessellate" v="1" /><tag k="extrude" v="-1" /><tag k="visibility" v="-1" /><tag k="drawOrder" v="" /><tag k="icon" v="" /><tag k="description" v="" /></way>
<way id="-373" visible="true"><nd ref="-368" /><nd ref="-374" /><nd ref="-375" /><nd ref="-376" /><nd ref="-377" /><nd ref="-378" /><nd ref="-379" /><nd ref="-380" /><nd ref="-306" /><tag k="begin" v="" /><tag k="altitudeMode" v="" /><tag k="end" v="" /><tag k="Name" v="Directions from  xxx to yyy" /><tag k="timestamp" v="" /><tag k="tessellate" v="1" /><tag k="extrude" v="-1" /><tag k="visibility" v="-1" /><tag k="drawOrder" v="" /><tag k="icon" v="" /><tag k="description" v="" /></way>
<way id="-383" visible="true"><nd ref="-306" /><nd ref="-384" /><nd ref="-385" /><nd ref="-386" /><tag k="begin" v="" /><tag k="altitudeMode" v="" /><tag k="end" v="" /><tag k="Name" v="Directions from  xxx to yyy" /><tag k="timestamp" v="" /><tag k="tessellate" v="1" /><tag k="extrude" v="-1" /><tag k="visibility" v="-1" /><tag k="drawOrder" v="" /><tag k="icon" v="" /><tag k="description" v="" /></way>
<way id="-389" visible="true"><nd ref="-390" /><nd ref="-391" /><nd ref="-392" /><nd ref="-393" /><nd ref="-394" /><nd ref="-395" /><nd ref="-396" /><nd ref="-397" /><nd ref="-398" /><nd ref="-399" /><nd ref="-400" /><tag k="begin" v="" /><tag k="altitudeMode" v="" /><tag k="end" v="" /><tag k="Name" v="Directions from  xxx to yyy" /><tag k="timestamp" v="" /><tag k="tessellate" v="1" /><tag k="extrude" v="-1" /><tag k="visibility" v="-1" /><tag k="drawOrder" v="" /><tag k="icon" v="" /><tag k="description" v="" /></way>
<way id="-403" visible="true"><nd ref="-195" /><nd ref="-404" /><nd ref="-405" /><tag k="begin" v="" /><tag k="altitudeMode" v="" /><tag k="end" v="" /><tag k="Name" v="Directions from  xxx to yyy" /><tag k="timestamp" v="" /><tag k="tessellate" v="1" /><tag k="extrude" v="-1" /><tag k="visibility" v="-1" /><tag k="drawOrder" v="" /><tag k="icon" v="" /><tag k="description" v="" /></way>
<way id="-408" visible="true"><nd ref="-404" /><nd ref="-409" /><tag k="begin" v="" /><tag k="altitudeMode" v="" /><tag k="end" v="" /><tag k="Name" v="Directions from  xxx to yyy" /><tag k="timestamp" v="" /><tag k="tessellate" v="1" /><tag k="extrude" v="-1" /><tag k="visibility" v="-1" /><tag k="drawOrder" v="" /><tag k="icon" v="" /><tag k="description" v="" /></way>
<way id="-412" visible="true"><nd ref="-413" /><nd ref="-414" /><tag k="begin" v="" /><tag k="altitudeMode" v="" /><tag k="end" v="" /><tag k="Name" v="Directions from  xxx to yyy" /><tag k="timestamp" v="" /><tag k="tessellate" v="1" /><tag k="extrude" v="-1" /><tag k="visibility" v="-1" /><tag k="drawOrder" v="" /><tag k="icon" v="" /><tag k="description" v="" /></way>
<way id="-417" visible="true"><nd ref="-347" /><nd ref="-418" /><nd ref="-419" /><tag k="begin" v="" /><tag k="altitudeMode" v="" /><tag k="end" v="" /><tag k="Name" v="Directions from  xxx to yyy" /><tag k="timestamp" v="" /><tag k="tessellate" v="1" /><tag k="extrude" v="-1" /><tag k="visibility" v="-1" /><tag k="drawOrder" v="" /><tag k="icon" v="" /><tag k="description" v="" /></way>
<way id="-422" visible="true"><nd ref="-419" /><nd ref="-423" /><nd ref="-424" /><nd ref="-425" /><tag k="begin" v="" /><tag k="altitudeMode" v="" /><tag k="end" v="" /><tag k="Name" v="Directions from  xxx to yyy" /><tag k="timestamp" v="" /><tag k="tessellate" v="1" /><tag k="extrude" v="-1" /><tag k="visibility" v="-1" /><tag k="drawOrder" v="" /><tag k="icon" v="" /><tag k="description" v="" /></way>
<way id="-428" visible="true"><nd ref="-429" /><nd ref="-430" /><nd ref="-431" /><nd ref="-432" /><tag k="begin" v="" /><tag k="altitudeMode" v="" /><tag k="end" v="" /><tag k="Name" v="Directions from  xxx to yyy" /><tag k="timestamp" v="" /><tag k="tessellate" v="1" /><tag k="extrude" v="-1" /><tag k="visibility" v="-1" /><tag k="drawOrder" v="" /><tag k="icon" v="" /><tag k="description" v="" /></way>
<way id="-435" visible="true"><nd ref="-432" /><nd ref="-436" /><nd ref="-437" /><nd ref="-438" /><nd ref="-439" /><nd ref="-440" /><nd ref="-441" /><nd ref="-442" /><nd ref="-443" /><nd ref="-444" /><nd ref="-445" /><nd ref="-446" /><nd ref="-447" /><nd ref="-448" /><nd ref="-449" /><nd ref="-450" /><nd ref="-451" /><nd ref="-452" /><tag k="begin" v="" /><tag k="altitudeMode" v="" /><tag k="end" v="" /><tag k="Name" v="Directions from  xxx to yyy" /><tag k="timestamp" v="" /><tag k="tessellate" v="1" /><tag k="extrude" v="-1" /><tag k="visibility" v="-1" /><tag k="drawOrder" v="" /><tag k="icon" v="" /><tag k="description" v="" /></way>
<way id="-455" visible="true"><nd ref="-452" /><nd ref="-456" /><nd ref="-457" /><nd ref="-458" /><nd ref="-459" /><tag k="begin" v="" /><tag k="altitudeMode" v="" /><tag k="end" v="" /><tag k="Name" v="Directions from  xxx to yyy" /><tag k="timestamp" v="" /><tag k="tessellate" v="1" /><tag k="extrude" v="-1" /><tag k="visibility" v="-1" /><tag k="drawOrder" v="" /><tag k="icon" v="" /><tag k="description" v="" /></way>
<way id="-462" visible="true"><nd ref="-457" /><nd ref="-463" /><nd ref="-464" /><nd ref="-465" /><tag k="begin" v="" /><tag k="altitudeMode" v="" /><tag k="end" v="" /><tag k="Name" v="Directions from  xxx to yyy" /><tag k="timestamp" v="" /><tag k="tessellate" v="1" /><tag k="extrude" v="-1" /><tag k="visibility" v="-1" /><tag k="drawOrder" v="" /><tag k="icon" v="" /><tag k="description" v="" /></way>
<way id="-468" visible="true"><nd ref="-458" /><nd ref="-469" /><nd ref="-470" /><nd ref="-471" /><nd ref="-464" /><tag k="begin" v="" /><tag k="altitudeMode" v="" /><tag k="end" v="" /><tag k="Name" v="Directions from  xxx to yyy" /><tag k="timestamp" v="" /><tag k="tessellate" v="1" /><tag k="extrude" v="-1" /><tag k="visibility" v="-1" /><tag k="drawOrder" v="" /><tag k="icon" v="" /><tag k="description" v="" /></way>
<way id="-474" visible="true"><nd ref="-471" /><nd ref="-475" /><nd ref="-476" /><nd ref="-477" /><nd ref="-478" /><nd ref="-479" /><nd ref="-480" /><nd ref="-481" /><nd ref="-482" /><nd ref="-483" /><nd ref="-484" /><nd ref="-485" /><nd ref="-486" /><nd ref="-487" /><tag k="begin" v="" /><tag k="altitudeMode" v="" /><tag k="end" v="" /><tag k="Name" v="Directions from  xxx to yyy" /><tag k="timestamp" v="" /><tag k="tessellate" v="1" /><tag k="extrude" v="-1" /><tag k="visibility" v="-1" /><tag k="drawOrder" v="" /><tag k="icon" v="" /><tag k="description" v="" /></way>
<way id="-490" visible="true"><nd ref="-482" /><nd ref="-491" /><nd ref="-492" /><tag k="begin" v="" /><tag k="altitudeMode" v="" /><tag k="end" v="" /><tag k="Name" v="Directions from  xxx to yyy" /><tag k="timestamp" v="" /><tag k="tessellate" v="1" /><tag k="extrude" v="-1" /><tag k="visibility" v="-1" /><tag k="drawOrder" v="" /><tag k="icon" v="" /><tag k="description" v="" /></way>
<way id="-495" visible="true"><nd ref="-492" /><nd ref="-496" /><nd ref="-497" /><nd ref="-498" /><nd ref="-499" /><nd ref="-500" /><tag k="begin" v="" /><tag k="altitudeMode" v="" /><tag k="end" v="" /><tag k="Name" v="Directions from  xxx to yyy" /><tag k="timestamp" v="" /><tag k="tessellate" v="1" /><tag k="extrude" v="-1" /><tag k="visibility" v="-1" /><tag k="drawOrder" v="" /><tag k="icon" v="" /><tag k="description" v="" /></way>
<way id="-503" visible="true"><nd ref="-504" /><nd ref="-438" /><tag k="begin" v="" /><tag k="altitudeMode" v="" /><tag k="end" v="" /><tag k="Name" v="Directions from  xxx to yyy" /><tag k="timestamp" v="" /><tag k="tessellate" v="1" /><tag k="extrude" v="-1" /><tag k="visibility" v="-1" /><tag k="drawOrder" v="" /><tag k="icon" v="" /><tag k="description" v="" /></way>
<way id="-507" visible="true"><nd ref="-449" /><nd ref="-508" /><tag k="begin" v="" /><tag k="altitudeMode" v="" /><tag k="end" v="" /><tag k="Name" v="Directions from  xxx to yyy" /><tag k="timestamp" v="" /><tag k="tessellate" v="1" /><tag k="extrude" v="-1" /><tag k="visibility" v="-1" /><tag k="drawOrder" v="" /><tag k="icon" v="" /><tag k="description" v="" /></way>
<way id="-511" visible="true"><nd ref="-508" /><nd ref="-512" /><nd ref="-513" /><nd ref="-514" /><tag k="begin" v="" /><tag k="altitudeMode" v="" /><tag k="end" v="" /><tag k="Name" v="Directions from  xxx to yyy" /><tag k="timestamp" v="" /><tag k="tessellate" v="1" /><tag k="extrude" v="-1" /><tag k="visibility" v="-1" /><tag k="drawOrder" v="" /><tag k="icon" v="" /><tag k="description" v="" /></way>
<way id="-517" visible="true"><nd ref="-456" /><nd ref="-518" /><nd ref="-519" /><nd ref="-520" /><nd ref="-521" /><tag k="begin" v="" /><tag k="altitudeMode" v="" /><tag k="end" v="" /><tag k="Name" v="Directions from  xxx to yyy" /><tag k="timestamp" v="" /><tag k="tessellate" v="1" /><tag k="extrude" v="-1" /><tag k="visibility" v="-1" /><tag k="drawOrder" v="" /><tag k="icon" v="" /><tag k="description" v="" /></way>
<way id="-524" visible="true"><nd ref="-486" /><nd ref="-525" /><nd ref="-526" /><nd ref="-527" /><nd ref="-528" /><tag k="begin" v="" /><tag k="altitudeMode" v="" /><tag k="end" v="" /><tag k="Name" v="Directions from  xxx to yyy" /><tag k="timestamp" v="" /><tag k="tessellate" v="1" /><tag k="extrude" v="-1" /><tag k="visibility" v="-1" /><tag k="drawOrder" v="" /><tag k="icon" v="" /><tag k="description" v="" /></way>
<way id="-531" visible="true"><nd ref="-528" /><nd ref="-532" /><nd ref="-533" /><tag k="begin" v="" /><tag k="altitudeMode" v="" /><tag k="end" v="" /><tag k="Name" v="Directions from  xxx to yyy" /><tag k="timestamp" v="" /><tag k="tessellate" v="1" /><tag k="extrude" v="-1" /><tag k="visibility" v="-1" /><tag k="drawOrder" v="" /><tag k="icon" v="" /><tag k="description" v="" /></way>
<way id="-536" visible="true"><nd ref="-533" /><nd ref="-537" /><tag k="begin" v="" /><tag k="altitudeMode" v="" /><tag k="end" v="" /><tag k="Name" v="Directions from  xxx to yyy" /><tag k="timestamp" v="" /><tag k="tessellate" v="1" /><tag k="extrude" v="-1" /><tag k="visibility" v="-1" /><tag k="drawOrder" v="" /><tag k="icon" v="" /><tag k="description" v="" /></way>
<way id="-540" visible="true"><nd ref="-537" /><nd ref="-541" /><nd ref="-542" /><nd ref="-543" /><nd ref="-544" /><nd ref="-545" /><nd ref="-546" /><nd ref="-547" /><nd ref="-548" /><nd ref="-549" /><nd ref="-550" /><nd ref="-551" /><tag k="begin" v="" /><tag k="altitudeMode" v="" /><tag k="end" v="" /><tag k="Name" v="Directions from  xxx to yyy" /><tag k="timestamp" v="" /><tag k="tessellate" v="1" /><tag k="extrude" v="-1" /><tag k="visibility" v="-1" /><tag k="drawOrder" v="" /><tag k="icon" v="" /><tag k="description" v="" /></way>
<way id="-554" visible="true"><nd ref="-2" /><nd ref="-555" /><nd ref="-556" /><nd ref="-557" /><nd ref="-558" /><nd ref="-559" /><nd ref="-560" /><nd ref="-91" /><tag k="begin" v="" /><tag k="altitudeMode" v="" /><tag k="end" v="" /><tag k="Name" v="Directions from  xxx to yyy" /><tag k="timestamp" v="" /><tag k="tessellate" v="1" /><tag k="extrude" v="-1" /><tag k="visibility" v="-1" /><tag k="drawOrder" v="" /><tag k="icon" v="" /><tag k="description" v="" /></way>
<way id="-563" visible="true"><nd ref="-558" /><nd ref="-564" /><nd ref="-565" /><nd ref="-17" /><tag k="begin" v="" /><tag k="altitudeMode" v="" /><tag k="end" v="" /><tag k="Name" v="Directions from  xxx to yyy" /><tag k="timestamp" v="" /><tag k="tessellate" v="1" /><tag k="extrude" v="-1" /><tag k="visibility" v="-1" /><tag k="drawOrder" v="" /><tag k="icon" v="" /><tag k="description" v="" /></way>
<way id="-568" visible="true"><nd ref="-92" /><nd ref="-569" /><nd ref="-570" /><nd ref="-158" /><tag k="begin" v="" /><tag k="altitudeMode" v="" /><tag k="end" v="" /><tag k="Name" v="Directions from  xxx to yyy" /><tag k="timestamp" v="" /><tag k="tessellate" v="1" /><tag k="extrude" v="-1" /><tag k="visibility" v="-1" /><tag k="drawOrder" v="" /><tag k="icon" v="" /><tag k="description" v="" /></way>
<way id="-573" visible="true"><nd ref="-159" /><nd ref="-574" /><nd ref="-251" /><tag k="begin" v="" /><tag k="altitudeMode" v="" /><tag k="end" v="" /><tag k="Name" v="Directions from  xxx to yyy" /><tag k="timestamp" v="" /><tag k="tessellate" v="1" /><tag k="extrude" v="-1" /><tag k="visibility" v="-1" /><tag k="drawOrder" v="" /><tag k="icon" v="" /><tag k="description" v="" /></way>
<way id="-577" visible="true"><nd ref="-248" /><nd ref="-578" /><nd ref="-579" /><nd ref="-580" /><nd ref="-581" /><nd ref="-582" /><tag k="begin" v="" /><tag k="altitudeMode" v="" /><tag k="end" v="" /><tag k="Name" v="Directions from  xxx to yyy" /><tag k="timestamp" v="" /><tag k="tessellate" v="1" /><tag k="extrude" v="-1" /><tag k="visibility" v="-1" /><tag k="drawOrder" v="" /><tag k="icon" v="" /><tag k="description" v="" /></way>
<way id="-585" visible="true"><nd ref="-312" /><nd ref="-586" /><nd ref="-398" /><tag k="begin" v="" /><tag k="altitudeMode" v="" /><tag k="end" v="" /><tag k="Name" v="Directions from  xxx to yyy" /><tag k="timestamp" v="" /><tag k="tessellate" v="1" /><tag k="extrude" v="-1" /><tag k="visibility" v="-1" /><tag k="drawOrder" v="" /><tag k="icon" v="" /><tag k="description" v="" /></way>
<way id="-589" visible="true"><nd ref="-580" /><nd ref="-590" /><nd ref="-591" /><nd ref="-592" /><nd ref="-593" /><nd ref="-594" /><nd ref="-595" /><nd ref="-596" /><nd ref="-393" /><tag k="begin" v="" /><tag k="altitudeMode" v="" /><tag k="end" v="" /><tag k="Name" v="Directions from  xxx to yyy" /><tag k="timestamp" v="" /><tag k="tessellate" v="1" /><tag k="extrude" v="-1" /><tag k="visibility" v="-1" /><tag k="drawOrder" v="" /><tag k="icon" v="" /><tag k="description" v="" /></way>
<way id="-599" visible="true"><nd ref="-394" /><nd ref="-600" /><nd ref="-601" /><nd ref="-602" /><nd ref="-603" /><nd ref="-604" /><nd ref="-605" /><nd ref="-606" /><nd ref="-607" /><nd ref="-608" /><nd ref="-429" /><tag k="begin" v="" /><tag k="altitudeMode" v="" /><tag k="end" v="" /><tag k="Name" v="Directions from  xxx to yyy" /><tag k="timestamp" v="" /><tag k="tessellate" v="1" /><tag k="extrude" v="-1" /><tag k="visibility" v="-1" /><tag k="drawOrder" v="" /><tag k="icon" v="" /><tag k="description" v="" /></way>
<way id="-611" visible="true"><nd ref="-399" /><nd ref="-612" /><nd ref="-432" /><tag k="begin" v="" /><tag k="altitudeMode" v="" /><tag k="end" v="" /><tag k="Name" v="Directions from  xxx to yyy" /><tag k="timestamp" v="" /><tag k="tessellate" v="1" /><tag k="extrude" v="-1" /><tag k="visibility" v="-1" /><tag k="drawOrder" v="" /><tag k="icon" v="" /><tag k="description" v="" /></way>
<way id="-615" visible="true"><nd ref="-603" /><nd ref="-616" /><nd ref="-617" /><nd ref="-618" /><nd ref="-438" /><tag k="begin" v="" /><tag k="altitudeMode" v="" /><tag k="end" v="" /><tag k="Name" v="Directions from  xxx to yyy" /><tag k="timestamp" v="" /><tag k="tessellate" v="1" /><tag k="extrude" v="-1" /><tag k="visibility" v="-1" /><tag k="drawOrder" v="" /><tag k="icon" v="" /><tag k="description" v="" /></way>
<way id="-621" visible="true"><nd ref="-5" /><nd ref="-622" /><nd ref="-564" /><tag k="begin" v="" /><tag k="altitudeMode" v="" /><tag k="end" v="" /><tag k="Name" v="Directions from  xxx to yyy" /><tag k="timestamp" v="" /><tag k="tessellate" v="1" /><tag k="extrude" v="-1" /><tag k="visibility" v="-1" /><tag k="drawOrder" v="" /><tag k="icon" v="" /><tag k="description" v="" /></way>
<way id="-625" visible="true"><nd ref="-255" /><nd ref="-626" /><nd ref="-627" /><nd ref="-628" /><nd ref="-629" /><nd ref="-630" /><nd ref="-318" /><tag k="begin" v="" /><tag k="altitudeMode" v="" /><tag k="end" v="" /><tag k="Name" v="Directions from  xxx to yyy" /><tag k="timestamp" v="" /><tag k="tessellate" v="1" /><tag k="extrude" v="-1" /><tag k="visibility" v="-1" /><tag k="drawOrder" v="" /><tag k="icon" v="" /><tag k="description" v="" /></way>
<way id="-633" visible="true"><nd ref="-405" /><nd ref="-634" /><nd ref="-450" /><tag k="begin" v="" /><tag k="altitudeMode" v="" /><tag k="end" v="" /><tag k="Name" v="Directions from  xxx to yyy" /><tag k="timestamp" v="" /><tag k="tessellate" v="1" /><tag k="extrude" v="-1" /><tag k="visibility" v="-1" /><tag k="drawOrder" v="" /><tag k="icon" v="" /><tag k="description" v="" /></way>
<way id="-637" visible="true"><nd ref="-638" /><nd ref="-639" /><nd ref="-640" /><nd ref="-641" /><nd ref="-642" /><nd ref="-643" /><nd ref="-644" /><tag k="begin" v="" /><tag k="altitudeMode" v="" /><tag k="end" v="" /><tag k="Name" v="Directions from  xxx to yyy" /><tag k="timestamp" v="" /><tag k="tessellate" v="1" /><tag k="extrude" v="-1" /><tag k="visibility" v="-1" /><tag k="drawOrder" v="" /><tag k="icon" v="" /><tag k="description" v="" /></way>
<way id="-647" visible="true"><nd ref="-340" /><nd ref="-648" /><nd ref="-470" /><tag k="begin" v="" /><tag k="altitudeMode" v="" /><tag k="end" v="" /><tag k="Name" v="Directions from  xxx to yyy" /><tag k="timestamp" v="" /><tag k="tessellate" v="1" /><tag k="extrude" v="-1" /><tag k="visibility" v="-1" /><tag k="drawOrder" v="" /><tag k="icon" v="" /><tag k="description" v="" /></way>
<way id="-651" visible="true"><nd ref="-634" /><nd ref="-652" /><nd ref="-459" /><tag k="begin" v="" /><tag k="altitudeMode" v="" /><tag k="end" v="" /><tag k="Name" v="Directions from  xxx to yyy" /><tag k="timestamp" v="" /><tag k="tessellate" v="1" /><tag k="extrude" v="-1" /><tag k="visibility" v="-1" /><tag k="drawOrder" v="" /><tag k="icon" v="" /><tag k="description" v="" /></way>
<way id="-655" visible="true"><nd ref="-346" /><nd ref="-656" /><nd ref="-657" /><nd ref="-482" /><tag k="begin" v="" /><tag k="altitudeMode" v="" /><tag k="end" v="" /><tag k="Name" v="Directions from  xxx to yyy" /><tag k="timestamp" v="" /><tag k="tessellate" v="1" /><tag k="extrude" v="-1" /><tag k="visibility" v="-1" /><tag k="drawOrder" v="" /><tag k="icon" v="" /><tag k="description" v="" /></way>
<way id="-660" visible="true"><nd ref="-238" /><nd ref="-661" /><nd ref="-662" /><nd ref="-296" /><tag k="begin" v="" /><tag k="altitudeMode" v="" /><tag k="end" v="" /><tag k="Name" v="Directions from  xxx to yyy" /><tag k="timestamp" v="" /><tag k="tessellate" v="1" /><tag k="extrude" v="-1" /><tag k="visibility" v="-1" /><tag k="drawOrder" v="" /><tag k="icon" v="" /><tag k="description" v="" /></way>
<way id="-665" visible="true"><nd ref="-666" /><nd ref="-667" /><nd ref="-154" /><tag k="begin" v="" /><tag k="altitudeMode" v="" /><tag k="end" v="" /><tag k="Name" v="Directions from  xxx to yyy" /><tag k="timestamp" v="" /><tag k="tessellate" v="1" /><tag k="extrude" v="-1" /><tag k="visibility" v="-1" /><tag k="drawOrder" v="" /><tag k="icon" v="" /><tag k="description" v="" /></way>
<way id="-670" visible="true"><nd ref="-671" /><nd ref="-672" /><nd ref="-673" /><nd ref="-674" /><tag k="begin" v="" /><tag k="altitudeMode" v="" /><tag k="end" v="" /><tag k="Name" v="Directions from  xxx to yyy" /><tag k="timestamp" v="" /><tag k="tessellate" v="1" /><tag k="extrude" v="-1" /><tag k="visibility" v="-1" /><tag k="drawOrder" v="" /><tag k="icon" v="" /><tag k="description" v="" /></way>
<way id="-677" visible="true"><nd ref="-369" /><nd ref="-678" /><nd ref="-424" /><tag k="begin" v="" /><tag k="altitudeMode" v="" /><tag k="end" v="" /><tag k="Name" v="Directions from  xxx to yyy" /><tag k="timestamp" v="" /><tag k="tessellate" v="1" /><tag k="extrude" v="-1" /><tag k="visibility" v="-1" /><tag k="drawOrder" v="" /><tag k="icon" v="" /><tag k="description" v="" /></way>
<way id="-681" visible="true"><nd ref="-423" /><nd ref="-682" /><nd ref="-496" /><tag k="begin" v="" /><tag k="altitudeMode" v="" /><tag k="end" v="" /><tag k="Name" v="Directions from  xxx to yyy" /><tag k="timestamp" v="" /><tag k="tessellate" v="1" /><tag k="extrude" v="-1" /><tag k="visibility" v="-1" /><tag k="drawOrder" v="" /><tag k="icon" v="" /><tag k="description" v="" /></way>
<way id="-685" visible="true"><nd ref="-497" /><nd ref="-686" /><nd ref="-687" /><nd ref="-541" /><tag k="begin" v="" /><tag k="altitudeMode" v="" /><tag k="end" v="" /><tag k="Name" v="Directions from  xxx to yyy" /><tag k="timestamp" v="" /><tag k="tessellate" v="1" /><tag k="extrude" v="-1" /><tag k="visibility" v="-1" /><tag k="drawOrder" v="" /><tag k="icon" v="" /><tag k="description" v="" /></way>
</osm>